<?xml version='1.0' encoding='UTF-8' standalone='yes' ?>
<gpx xmlns="http://www.topografix.com/GPX/1/1" xmlns:geotracker="http://ilyabogdanovich.com/gpx/extensions/geotracker" xmlns:xsi="http://www.w3.org/2001/XMLSchema-instance" xsi:schemaLocation="http://www.topografix.com/GPX/1/1 http://www.topografix.com/GPX/1/1/gpx.xsd" version="1.1" creator="Recorded in Geo Tracker for Android from Ilya Bogdanovich">
  <metadata>
    <name>2026年4月29日 08:31:29</name>
    <desc>track Nh</desc>
    <author>
      <name>Recorded in Geo Tracker for Android from Ilya Bogdanovich</name>
      <link href="https://play.google.com/store/apps/details?id=com.ilyabogdanovich.geotracker" />
    </author>
    <link href="https://play.google.com/store/apps/details?id=com.ilyabogdanovich.geotracker" />
    <time>2026-04-29T12:31:29Z</time>
  </metadata>
  <wpt lat="43.36504517" lon="-71.46055">
    <ele>117.74</ele>
    <time>2026-04-29T12:32:10Z</time>
    <name>Stop for ~2 min</name>
    <desc>Elevation: 118 m
Time from start: 00:00:40
Distance from start: 31 m</desc>
    <extensions>
      <geotracker:meta visited="1" />
    </extensions>
  </wpt>
  <wpt lat="43.36519037" lon="-71.45830303">
    <ele>126.03</ele>
    <time>2026-04-29T12:47:17Z</time>
    <name>Stop for ~2 min</name>
    <desc>Elevation: 126 m
Time from start: 00:15:47
Distance from start: 431 m</desc>
    <extensions>
      <geotracker:meta visited="1" />
    </extensions>
  </wpt>
  <trk>
    <name>2026年4月29日 08:31:29</name>
    <desc>track Nh</desc>
    <src>Recorded in Geo Tracker for Android from Ilya Bogdanovich</src>
    <link href="https://play.google.com/store/apps/details?id=com.ilyabogdanovich.geotracker" />
    <extensions>
      <geotracker:meta>
        <geotracker:length>1438.74</geotracker:length>
        <geotracker:duration>2177617</geotracker:duration>
        <geotracker:creationtime>2026-04-29T12:31:29Z</geotracker:creationtime>
        <geotracker:activity>0</geotracker:activity>
      </geotracker:meta>
    </extensions>
    <trkseg>
      <trkpt lat="43.36487315" lon="-71.46085517">
        <ele>117.97</ele>
        <time>2026-04-29T12:31:35Z</time>
        <extensions>
          <geotracker:meta s="0" />
        </extensions>
      </trkpt>
      <trkpt lat="43.36492083" lon="-71.46075032">
        <ele>117.85</ele>
        <time>2026-04-29T12:31:46Z</time>
        <extensions>
          <geotracker:meta c="0.53" s="1.42" />
        </extensions>
      </trkpt>
      <trkpt lat="43.36499008" lon="-71.46064939">
        <ele>119.21</ele>
        <time>2026-04-29T12:31:53Z</time>
        <extensions>
          <geotracker:meta c="1.01" s="1.25" />
        </extensions>
      </trkpt>
      <trkpt lat="43.36504517" lon="-71.46055">
        <ele>117.74</ele>
        <time>2026-04-29T12:32:10Z</time>
        <extensions>
          <geotracker:meta c="0.9" s="0.41" />
        </extensions>
      </trkpt>
      <trkpt lat="43.36505638" lon="-71.4604979">
        <ele>119.32</ele>
        <time>2026-04-29T12:34:16Z</time>
        <extensions>
          <geotracker:meta c="1.22" s="1" />
        </extensions>
      </trkpt>
      <trkpt lat="43.36511573" lon="-71.46028179">
        <ele>119.32</ele>
        <time>2026-04-29T12:35:10Z</time>
        <extensions>
          <geotracker:meta c="1.04" s="1.5" />
        </extensions>
      </trkpt>
      <trkpt lat="43.36516184" lon="-71.46016335">
        <ele>119.45</ele>
        <time>2026-04-29T12:35:19Z</time>
        <extensions>
          <geotracker:meta c="1.34" s="1.23" />
        </extensions>
      </trkpt>
      <trkpt lat="43.36518846" lon="-71.46003628">
        <ele>119.26</ele>
        <time>2026-04-29T12:35:28Z</time>
        <extensions>
          <geotracker:meta c="1.31" s="1.23" />
        </extensions>
      </trkpt>
      <trkpt lat="43.36523441" lon="-71.45991904">
        <ele>118.73</ele>
        <time>2026-04-29T12:35:37Z</time>
        <extensions>
          <geotracker:meta c="1.27" s="1.07" />
        </extensions>
      </trkpt>
      <trkpt lat="43.36526847" lon="-71.45980174">
        <ele>118.92</ele>
        <time>2026-04-29T12:35:45Z</time>
        <extensions>
          <geotracker:meta c="1.56" s="1.73" />
        </extensions>
      </trkpt>
      <trkpt lat="43.36530298" lon="-71.45968114">
        <ele>119.23</ele>
        <time>2026-04-29T12:36:46Z</time>
        <extensions>
          <geotracker:meta c="1.1" s="1.11" />
        </extensions>
      </trkpt>
      <trkpt lat="43.36535093" lon="-71.45957023">
        <ele>119.1</ele>
        <time>2026-04-29T12:36:54Z</time>
        <extensions>
          <geotracker:meta c="1.15" s="1.3" />
        </extensions>
      </trkpt>
      <trkpt lat="43.36537378" lon="-71.45942967">
        <ele>118.97</ele>
        <time>2026-04-29T12:37:03Z</time>
        <extensions>
          <geotracker:meta c="1.7" s="1.32" />
        </extensions>
      </trkpt>
      <trkpt lat="43.36536301" lon="-71.4593034">
        <ele>119.96</ele>
        <time>2026-04-29T12:37:11Z</time>
        <extensions>
          <geotracker:meta c="1.3" s="1.5" />
        </extensions>
      </trkpt>
      <trkpt lat="43.3653078" lon="-71.45918626">
        <ele>119.92</ele>
        <time>2026-04-29T12:37:28Z</time>
        <extensions>
          <geotracker:meta c="2.5" s="1.31" />
        </extensions>
      </trkpt>
      <trkpt lat="43.36524319" lon="-71.45908202">
        <ele>119.65</ele>
        <time>2026-04-29T12:37:39Z</time>
        <extensions>
          <geotracker:meta c="2.35" s="1.05" />
        </extensions>
      </trkpt>
      <trkpt lat="43.36516127" lon="-71.45901279">
        <ele>119.88</ele>
        <time>2026-04-29T12:37:48Z</time>
        <extensions>
          <geotracker:meta c="2.85" s="1.36" />
        </extensions>
      </trkpt>
      <trkpt lat="43.36507134" lon="-71.45897001">
        <ele>119.87</ele>
        <time>2026-04-29T12:38:08Z</time>
        <extensions>
          <geotracker:meta c="2.83" s="0.9" />
        </extensions>
      </trkpt>
      <trkpt lat="43.36497958" lon="-71.45892181">
        <ele>120.86</ele>
        <time>2026-04-29T12:38:20Z</time>
        <extensions>
          <geotracker:meta c="2.51" s="1.23" />
        </extensions>
      </trkpt>
      <trkpt lat="43.36491117" lon="-71.45882296">
        <ele>120.81</ele>
        <time>2026-04-29T12:38:30Z</time>
        <extensions>
          <geotracker:meta c="2.37" s="1.34" />
        </extensions>
      </trkpt>
      <trkpt lat="43.36484454" lon="-71.45873548">
        <ele>120.21</ele>
        <time>2026-04-29T12:38:40Z</time>
        <extensions>
          <geotracker:meta c="2.46" s="0.56" />
        </extensions>
      </trkpt>
      <trkpt lat="43.36476912" lon="-71.45866792">
        <ele>121.38</ele>
        <time>2026-04-29T12:39:16Z</time>
        <extensions>
          <geotracker:meta c="2.57" s="1.11" />
        </extensions>
      </trkpt>
      <trkpt lat="43.36468043" lon="-71.45862611">
        <ele>122.22</ele>
        <time>2026-04-29T12:39:50Z</time>
        <extensions>
          <geotracker:meta c="2.87" s="1.19" />
        </extensions>
      </trkpt>
      <trkpt lat="43.36458099" lon="-71.45861">
        <ele>122.96</ele>
        <time>2026-04-29T12:39:59Z</time>
        <extensions>
          <geotracker:meta c="2.95" s="1.34" />
        </extensions>
      </trkpt>
      <trkpt lat="43.36448471" lon="-71.45860384">
        <ele>122.89</ele>
        <time>2026-04-29T12:40:07Z</time>
        <extensions>
          <geotracker:meta c="3.03" s="1.28" />
        </extensions>
      </trkpt>
      <trkpt lat="43.36438881" lon="-71.45859525">
        <ele>122.54</ele>
        <time>2026-04-29T12:41:09Z</time>
        <extensions>
          <geotracker:meta c="3.07" s="1.21" />
        </extensions>
      </trkpt>
      <trkpt lat="43.3643025" lon="-71.4585462">
        <ele>122.13</ele>
        <time>2026-04-29T12:41:18Z</time>
        <extensions>
          <geotracker:meta c="2.51" s="1.19" />
        </extensions>
      </trkpt>
      <trkpt lat="43.36424077" lon="-71.4584265">
        <ele>121.65</ele>
        <time>2026-04-29T12:41:42Z</time>
        <extensions>
          <geotracker:meta c="1.8" s="0.81" />
        </extensions>
      </trkpt>
      <trkpt lat="43.36419219" lon="-71.45825365">
        <ele>121.96</ele>
        <time>2026-04-29T12:42:19Z</time>
        <extensions>
          <geotracker:meta c="1.68" s="1.28" />
        </extensions>
      </trkpt>
      <trkpt lat="43.36422895" lon="-71.45813165">
        <ele>122.43</ele>
        <time>2026-04-29T12:42:31Z</time>
        <extensions>
          <geotracker:meta c="0.67" s="2.04" />
        </extensions>
      </trkpt>
      <trkpt lat="43.36429911" lon="-71.45804988">
        <ele>125.34</ele>
        <time>2026-04-29T12:43:19Z</time>
        <extensions>
          <geotracker:meta c="0.19" s="1.06" />
        </extensions>
      </trkpt>
      <trkpt lat="43.36439487" lon="-71.45802563">
        <ele>125.9</ele>
        <time>2026-04-29T12:43:29Z</time>
        <extensions>
          <geotracker:meta c="0.12" s="1.04" />
        </extensions>
      </trkpt>
      <trkpt lat="43.36450008" lon="-71.45800892">
        <ele>128.11</ele>
        <time>2026-04-29T12:43:41Z</time>
        <extensions>
          <geotracker:meta c="0.01" s="0.97" />
        </extensions>
      </trkpt>
      <trkpt lat="43.36458992" lon="-71.45802256">
        <ele>127.27</ele>
        <time>2026-04-29T12:44:40Z</time>
        <extensions>
          <geotracker:meta c="6.23" s="1.37" />
        </extensions>
      </trkpt>
      <trkpt lat="43.36472278" lon="-71.45806659">
        <ele>127.03</ele>
        <time>2026-04-29T12:44:50Z</time>
        <extensions>
          <geotracker:meta c="6.11" s="1.28" />
        </extensions>
      </trkpt>
      <trkpt lat="43.36481098" lon="-71.45809332">
        <ele>126.4</ele>
        <time>2026-04-29T12:44:57Z</time>
        <extensions>
          <geotracker:meta c="6.09" s="1.35" />
        </extensions>
      </trkpt>
      <trkpt lat="43.36490314" lon="-71.45812664">
        <ele>125.25</ele>
        <time>2026-04-29T12:45:05Z</time>
        <extensions>
          <geotracker:meta c="6" s="1.35" />
        </extensions>
      </trkpt>
      <trkpt lat="43.3650087" lon="-71.45817875">
        <ele>125.29</ele>
        <time>2026-04-29T12:45:14Z</time>
        <extensions>
          <geotracker:meta c="5.89" s="1.45" />
        </extensions>
      </trkpt>
      <trkpt lat="43.36510009" lon="-71.4582569">
        <ele>127.49</ele>
        <time>2026-04-29T12:45:23Z</time>
        <extensions>
          <geotracker:meta c="5.89" s="3.19" />
        </extensions>
      </trkpt>
      <trkpt lat="43.36519037" lon="-71.45830303">
        <ele>126.03</ele>
        <time>2026-04-29T12:47:17Z</time>
        <extensions>
          <geotracker:meta c="5.78" s="1.24" />
        </extensions>
      </trkpt>
      <trkpt lat="43.36531395" lon="-71.45838645">
        <ele>126.75</ele>
        <time>2026-04-29T12:47:31Z</time>
        <extensions>
          <geotracker:meta c="5.56" s="1.13" />
        </extensions>
      </trkpt>
      <trkpt lat="43.36539892" lon="-71.45846037">
        <ele>130.22</ele>
        <time>2026-04-29T12:47:40Z</time>
        <extensions>
          <geotracker:meta c="5.43" s="1.01" />
        </extensions>
      </trkpt>
      <trkpt lat="43.3654733" lon="-71.45854086">
        <ele>129.87</ele>
        <time>2026-04-29T12:47:55Z</time>
        <extensions>
          <geotracker:meta c="5.39" s="0.76" />
        </extensions>
      </trkpt>
      <trkpt lat="43.36553588" lon="-71.45863136">
        <ele>131.11</ele>
        <time>2026-04-29T12:48:05Z</time>
        <extensions>
          <geotracker:meta c="5.46" s="0.91" />
        </extensions>
      </trkpt>
      <trkpt lat="43.36557711" lon="-71.45874347">
        <ele>130.58</ele>
        <time>2026-04-29T12:48:16Z</time>
        <extensions>
          <geotracker:meta c="5.35" s="0.91" />
        </extensions>
      </trkpt>
      <trkpt lat="43.36562122" lon="-71.45885242">
        <ele>129.78</ele>
        <time>2026-04-29T12:48:53Z</time>
        <extensions>
          <geotracker:meta c="5.16" s="1.13" />
        </extensions>
      </trkpt>
      <trkpt lat="43.36561864" lon="-71.45898463">
        <ele>127.72</ele>
        <time>2026-04-29T12:49:02Z</time>
        <extensions>
          <geotracker:meta c="4.79" s="1.22" />
        </extensions>
      </trkpt>
      <trkpt lat="43.36563722" lon="-71.45916207">
        <ele>126.3</ele>
        <time>2026-04-29T12:50:09Z</time>
        <extensions>
          <geotracker:meta c="5.08" s="1.03" />
        </extensions>
      </trkpt>
      <trkpt lat="43.36565825" lon="-71.45929218">
        <ele>124.92</ele>
        <time>2026-04-29T12:50:18Z</time>
        <extensions>
          <geotracker:meta c="4.96" s="1.26" />
        </extensions>
      </trkpt>
      <trkpt lat="43.36566807" lon="-71.45942267">
        <ele>124.39</ele>
        <time>2026-04-29T12:50:26Z</time>
        <extensions>
          <geotracker:meta c="4.76" s="1.28" />
        </extensions>
      </trkpt>
      <trkpt lat="43.36564242" lon="-71.45955349">
        <ele>123.42</ele>
        <time>2026-04-29T12:50:54Z</time>
        <extensions>
          <geotracker:meta c="4.79" s="1.31" />
        </extensions>
      </trkpt>
      <trkpt lat="43.36567452" lon="-71.4596775">
        <ele>123.5</ele>
        <time>2026-04-29T12:51:02Z</time>
        <extensions>
          <geotracker:meta c="4.9" s="1.24" />
        </extensions>
      </trkpt>
      <trkpt lat="43.36567771" lon="-71.45980206">
        <ele>123.64</ele>
        <time>2026-04-29T12:51:11Z</time>
        <extensions>
          <geotracker:meta c="4.56" s="0.86" />
        </extensions>
      </trkpt>
      <trkpt lat="43.36566579" lon="-71.45993129">
        <ele>122.31</ele>
        <time>2026-04-29T12:52:32Z</time>
        <extensions>
          <geotracker:meta c="4.44" s="1.2" />
        </extensions>
      </trkpt>
      <trkpt lat="43.36563215" lon="-71.46012651">
        <ele>122.74</ele>
        <time>2026-04-29T12:52:45Z</time>
        <extensions>
          <geotracker:meta c="4.34" s="1.29" />
        </extensions>
      </trkpt>
      <trkpt lat="43.36558803" lon="-71.46024273">
        <ele>122.15</ele>
        <time>2026-04-29T12:52:53Z</time>
        <extensions>
          <geotracker:meta c="4.3" s="1.32" />
        </extensions>
      </trkpt>
      <trkpt lat="43.36554222" lon="-71.46036665">
        <ele>121.41</ele>
        <time>2026-04-29T12:53:01Z</time>
        <extensions>
          <geotracker:meta c="4.15" s="1.41" />
        </extensions>
      </trkpt>
      <trkpt lat="43.36549112" lon="-71.46047439">
        <ele>121.3</ele>
        <time>2026-04-29T12:53:09Z</time>
        <extensions>
          <geotracker:meta c="4.09" s="1.14" />
        </extensions>
      </trkpt>
      <trkpt lat="43.36543481" lon="-71.46058173">
        <ele>119.98</ele>
        <time>2026-04-29T12:53:18Z</time>
        <extensions>
          <geotracker:meta c="3.98" s="1.14" />
        </extensions>
      </trkpt>
      <trkpt lat="43.36537522" lon="-71.46067728">
        <ele>120.35</ele>
        <time>2026-04-29T12:53:29Z</time>
        <extensions>
          <geotracker:meta s="0" />
        </extensions>
      </trkpt>
      <trkpt lat="43.36531226" lon="-71.46077556">
        <ele>121.1</ele>
        <time>2026-04-29T12:53:57Z</time>
        <extensions>
          <geotracker:meta c="3.82" s="1.13" />
        </extensions>
      </trkpt>
      <trkpt lat="43.3652425" lon="-71.46086469">
        <ele>121.36</ele>
        <time>2026-04-29T12:54:09Z</time>
        <extensions>
          <geotracker:meta c="3.73" s="0.99" />
        </extensions>
      </trkpt>
      <trkpt lat="43.3651639" lon="-71.46092851">
        <ele>122.83</ele>
        <time>2026-04-29T12:54:18Z</time>
        <extensions>
          <geotracker:meta c="3.63" s="1.21" />
        </extensions>
      </trkpt>
      <trkpt lat="43.36509645" lon="-71.46101731">
        <ele>118.75</ele>
        <time>2026-04-29T12:54:39Z</time>
        <extensions>
          <geotracker:meta c="3.57" s="1.51" />
        </extensions>
      </trkpt>
      <trkpt lat="43.36501778" lon="-71.46095682">
        <ele>119.56</ele>
        <time>2026-04-29T12:56:04Z</time>
        <extensions>
          <geotracker:meta c="2.24" s="0.95" />
        </extensions>
      </trkpt>
      <trkpt lat="43.36502015" lon="-71.46083267">
        <ele>116.13</ele>
        <time>2026-04-29T12:56:12Z</time>
        <extensions>
          <geotracker:meta c="2" s="1.05" />
        </extensions>
      </trkpt>
      <trkpt lat="43.36498758" lon="-71.46070326">
        <ele>115.46</ele>
        <time>2026-04-29T12:56:21Z</time>
        <extensions>
          <geotracker:meta c="1.53" s="1.1" />
        </extensions>
      </trkpt>
      <trkpt lat="43.36502291" lon="-71.46058217">
        <ele>118.08</ele>
        <time>2026-04-29T12:56:33Z</time>
        <extensions>
          <geotracker:meta c="1.02" s="1.04" />
        </extensions>
      </trkpt>
      <trkpt lat="43.36503683" lon="-71.46044455">
        <ele>118.73</ele>
        <time>2026-04-29T12:56:59Z</time>
        <extensions>
          <geotracker:meta c="1.13" s="1.34" />
        </extensions>
      </trkpt>
      <trkpt lat="43.36507402" lon="-71.46032279">
        <ele>119.33</ele>
        <time>2026-04-29T12:57:07Z</time>
        <extensions>
          <geotracker:meta c="1.18" s="1.34" />
        </extensions>
      </trkpt>
      <trkpt lat="43.36511646" lon="-71.4602002">
        <ele>118.61</ele>
        <time>2026-04-29T12:57:15Z</time>
        <extensions>
          <geotracker:meta c="1.19" s="1.26" />
        </extensions>
      </trkpt>
      <trkpt lat="43.36514823" lon="-71.46007834">
        <ele>118.32</ele>
        <time>2026-04-29T12:57:23Z</time>
        <extensions>
          <geotracker:meta c="1.23" s="1.26" />
        </extensions>
      </trkpt>
      <trkpt lat="43.36517663" lon="-71.45995695">
        <ele>118.1</ele>
        <time>2026-04-29T12:57:31Z</time>
        <extensions>
          <geotracker:meta c="1.23" s="1.34" />
        </extensions>
      </trkpt>
      <trkpt lat="43.36520724" lon="-71.45982776">
        <ele>118.2</ele>
        <time>2026-04-29T12:57:39Z</time>
        <extensions>
          <geotracker:meta c="1.11" s="1.26" />
        </extensions>
      </trkpt>
      <trkpt lat="43.36525361" lon="-71.45971636">
        <ele>118.93</ele>
        <time>2026-04-29T12:57:47Z</time>
        <extensions>
          <geotracker:meta c="0.99" s="1.25" />
        </extensions>
      </trkpt>
      <trkpt lat="43.36529967" lon="-71.45960195">
        <ele>119.04</ele>
        <time>2026-04-29T12:57:55Z</time>
        <extensions>
          <geotracker:meta c="1.19" s="1.36" />
        </extensions>
      </trkpt>
      <trkpt lat="43.36533214" lon="-71.45947425">
        <ele>118.43</ele>
        <time>2026-04-29T12:58:03Z</time>
        <extensions>
          <geotracker:meta c="1.37" s="1.41" />
        </extensions>
      </trkpt>
      <trkpt lat="43.36533545" lon="-71.45934883">
        <ele>117.19</ele>
        <time>2026-04-29T12:58:10Z</time>
        <extensions>
          <geotracker:meta c="1.59" s="1.49" />
        </extensions>
      </trkpt>
      <trkpt lat="43.36531609" lon="-71.45921283">
        <ele>116.56</ele>
        <time>2026-04-29T12:58:18Z</time>
        <extensions>
          <geotracker:meta c="1.85" s="1.39" />
        </extensions>
      </trkpt>
      <trkpt lat="43.36528251" lon="-71.45908871">
        <ele>117.2</ele>
        <time>2026-04-29T12:58:26Z</time>
        <extensions>
          <geotracker:meta c="2.22" s="1.48" />
        </extensions>
      </trkpt>
      <trkpt lat="43.36521106" lon="-71.45901194">
        <ele>118.24</ele>
        <time>2026-04-29T12:58:33Z</time>
        <extensions>
          <geotracker:meta c="2.75" s="1.44" />
        </extensions>
      </trkpt>
      <trkpt lat="43.36512452" lon="-71.45897392">
        <ele>118.3</ele>
        <time>2026-04-29T12:58:40Z</time>
        <extensions>
          <geotracker:meta c="2.96" s="1.45" />
        </extensions>
      </trkpt>
      <trkpt lat="43.36503609" lon="-71.45893679">
        <ele>117.9</ele>
        <time>2026-04-29T12:58:47Z</time>
        <extensions>
          <geotracker:meta c="2.85" s="1.43" />
        </extensions>
      </trkpt>
      <trkpt lat="43.36495496" lon="-71.4588778">
        <ele>117.91</ele>
        <time>2026-04-29T12:58:54Z</time>
        <extensions>
          <geotracker:meta c="2.57" s="1.33" />
        </extensions>
      </trkpt>
      <trkpt lat="43.36488916" lon="-71.45878153">
        <ele>118.53</ele>
        <time>2026-04-29T12:59:01Z</time>
        <extensions>
          <geotracker:meta c="2.3" s="1.44" />
        </extensions>
      </trkpt>
      <trkpt lat="43.36482051" lon="-71.45868983">
        <ele>119.58</ele>
        <time>2026-04-29T12:59:09Z</time>
        <extensions>
          <geotracker:meta c="2.37" s="1.37" />
        </extensions>
      </trkpt>
      <trkpt lat="43.36474115" lon="-71.45861297">
        <ele>119.61</ele>
        <time>2026-04-29T12:59:24Z</time>
        <extensions>
          <geotracker:meta c="2.55" s="1.14" />
        </extensions>
      </trkpt>
      <trkpt lat="43.3646492" lon="-71.45858329">
        <ele>119.08</ele>
        <time>2026-04-29T12:59:33Z</time>
        <extensions>
          <geotracker:meta c="3.11" s="1.3" />
        </extensions>
      </trkpt>
      <trkpt lat="43.36455079" lon="-71.45856143">
        <ele>119.42</ele>
        <time>2026-04-29T12:59:41Z</time>
        <extensions>
          <geotracker:meta c="2.89" s="1.42" />
        </extensions>
      </trkpt>
      <trkpt lat="43.36445435" lon="-71.45856074">
        <ele>119.41</ele>
        <time>2026-04-29T12:59:49Z</time>
        <extensions>
          <geotracker:meta c="3.25" s="1.39" />
        </extensions>
      </trkpt>
      <trkpt lat="43.36436246" lon="-71.4585358">
        <ele>118.86</ele>
        <time>2026-04-29T12:59:57Z</time>
        <extensions>
          <geotracker:meta c="2.59" s="1.35" />
        </extensions>
      </trkpt>
      <trkpt lat="43.36428317" lon="-71.45847723">
        <ele>119.56</ele>
        <time>2026-04-29T13:00:07Z</time>
        <extensions>
          <geotracker:meta c="2.61" s="1.31" />
        </extensions>
      </trkpt>
      <trkpt lat="43.36423407" lon="-71.45836932">
        <ele>122.25</ele>
        <time>2026-04-29T13:01:00Z</time>
        <extensions>
          <geotracker:meta c="2.42" s="1.37" />
        </extensions>
      </trkpt>
      <trkpt lat="43.36418925" lon="-71.45825102">
        <ele>122.18</ele>
        <time>2026-04-29T13:01:08Z</time>
        <extensions>
          <geotracker:meta c="1.92" s="1.35" />
        </extensions>
      </trkpt>
      <trkpt lat="43.36420914" lon="-71.45812085">
        <ele>122.32</ele>
        <time>2026-04-29T13:01:19Z</time>
        <extensions>
          <geotracker:meta c="1.27" s="1.13" />
        </extensions>
      </trkpt>
      <trkpt lat="43.3642972" lon="-71.45808359">
        <ele>122.98</ele>
        <time>2026-04-29T13:01:29Z</time>
        <extensions>
          <geotracker:meta c="0.06" s="1.06" />
        </extensions>
      </trkpt>
      <trkpt lat="43.36438945" lon="-71.45808091">
        <ele>123.45</ele>
        <time>2026-04-29T13:01:42Z</time>
        <extensions>
          <geotracker:meta c="6.13" s="1.02" />
        </extensions>
      </trkpt>
      <trkpt lat="43.36448472" lon="-71.45808292">
        <ele>123.52</ele>
        <time>2026-04-29T13:01:53Z</time>
        <extensions>
          <geotracker:meta c="0.34" s="1.07" />
        </extensions>
      </trkpt>
      <trkpt lat="43.364577" lon="-71.45806163">
        <ele>125.06</ele>
        <time>2026-04-29T13:02:03Z</time>
        <extensions>
          <geotracker:meta c="0.06" s="1.16" />
        </extensions>
      </trkpt>
      <trkpt lat="43.36467515" lon="-71.45806894">
        <ele>124.92</ele>
        <time>2026-04-29T13:02:12Z</time>
        <extensions>
          <geotracker:meta c="6.23" s="1.16" />
        </extensions>
      </trkpt>
      <trkpt lat="43.36476981" lon="-71.45809065">
        <ele>125.24</ele>
        <time>2026-04-29T13:02:20Z</time>
        <extensions>
          <geotracker:meta c="6.13" s="1.31" />
        </extensions>
      </trkpt>
      <trkpt lat="43.36485789" lon="-71.4581354">
        <ele>124.92</ele>
        <time>2026-04-29T13:02:28Z</time>
        <extensions>
          <geotracker:meta c="5.96" s="1.21" />
        </extensions>
      </trkpt>
      <trkpt lat="43.36494638" lon="-71.45817136">
        <ele>124.85</ele>
        <time>2026-04-29T13:02:39Z</time>
        <extensions>
          <geotracker:meta c="6" s="0.48" />
        </extensions>
      </trkpt>
      <trkpt lat="43.36503429" lon="-71.45823263">
        <ele>124.37</ele>
        <time>2026-04-29T13:02:55Z</time>
        <extensions>
          <geotracker:meta c="5.7" s="1.11" />
        </extensions>
      </trkpt>
      <trkpt lat="43.36512015" lon="-71.45829825">
        <ele>123.55</ele>
        <time>2026-04-29T13:03:04Z</time>
        <extensions>
          <geotracker:meta c="5.87" s="1.22" />
        </extensions>
      </trkpt>
      <trkpt lat="43.36521012" lon="-71.45834719">
        <ele>123.35</ele>
        <time>2026-04-29T13:03:13Z</time>
        <extensions>
          <geotracker:meta c="5.94" s="1.21" />
        </extensions>
      </trkpt>
      <trkpt lat="43.3652857" lon="-71.45842704">
        <ele>122.92</ele>
        <time>2026-04-29T13:03:23Z</time>
        <extensions>
          <geotracker:meta c="5.44" s="1.11" />
        </extensions>
      </trkpt>
      <trkpt lat="43.36535312" lon="-71.45850931">
        <ele>122.83</ele>
        <time>2026-04-29T13:03:37Z</time>
        <extensions>
          <geotracker:meta s="0" />
        </extensions>
      </trkpt>
      <trkpt lat="43.36543624" lon="-71.45856026">
        <ele>123.96</ele>
        <time>2026-04-29T13:03:53Z</time>
        <extensions>
          <geotracker:meta c="5.69" s="0.86" />
        </extensions>
      </trkpt>
      <trkpt lat="43.36546811" lon="-71.45869057">
        <ele>123.06</ele>
        <time>2026-04-29T13:04:04Z</time>
        <extensions>
          <geotracker:meta c="4.91" s="1.21" />
        </extensions>
      </trkpt>
      <trkpt lat="43.36552647" lon="-71.45878613">
        <ele>123.17</ele>
        <time>2026-04-29T13:04:13Z</time>
        <extensions>
          <geotracker:meta c="5.46" s="1.11" />
        </extensions>
      </trkpt>
      <trkpt lat="43.3655692" lon="-71.45891055">
        <ele>122.97</ele>
        <time>2026-04-29T13:04:23Z</time>
        <extensions>
          <geotracker:meta c="5.08" s="1.07" />
        </extensions>
      </trkpt>
      <trkpt lat="43.36559116" lon="-71.45903852">
        <ele>122.67</ele>
        <time>2026-04-29T13:04:33Z</time>
        <extensions>
          <geotracker:meta c="4.91" s="1.08" />
        </extensions>
      </trkpt>
      <trkpt lat="43.36560348" lon="-71.4591613">
        <ele>122.16</ele>
        <time>2026-04-29T13:04:43Z</time>
        <extensions>
          <geotracker:meta c="5" s="0.99" />
        </extensions>
      </trkpt>
      <trkpt lat="43.36562281" lon="-71.45928727">
        <ele>122.17</ele>
        <time>2026-04-29T13:04:53Z</time>
        <extensions>
          <geotracker:meta c="4.99" s="1.08" />
        </extensions>
      </trkpt>
      <trkpt lat="43.36563399" lon="-71.45942334">
        <ele>122.41</ele>
        <time>2026-04-29T13:05:03Z</time>
        <extensions>
          <geotracker:meta c="4.82" s="1.11" />
        </extensions>
      </trkpt>
      <trkpt lat="43.36564499" lon="-71.45955375">
        <ele>123.55</ele>
        <time>2026-04-29T13:05:12Z</time>
        <extensions>
          <geotracker:meta c="4.81" s="1.12" />
        </extensions>
      </trkpt>
      <trkpt lat="43.36566309" lon="-71.45968035">
        <ele>123.67</ele>
        <time>2026-04-29T13:05:22Z</time>
        <extensions>
          <geotracker:meta c="4.76" s="1.08" />
        </extensions>
      </trkpt>
      <trkpt lat="43.36566058" lon="-71.45980977">
        <ele>123.9</ele>
        <time>2026-04-29T13:05:31Z</time>
        <extensions>
          <geotracker:meta c="4.43" s="1.07" />
        </extensions>
      </trkpt>
      <trkpt lat="43.36562798" lon="-71.45993185">
        <ele>123.15</ele>
        <time>2026-04-29T13:05:40Z</time>
        <extensions>
          <geotracker:meta c="4.43" s="1.17" />
        </extensions>
      </trkpt>
      <trkpt lat="43.36561554" lon="-71.46006583">
        <ele>123.8</ele>
        <time>2026-04-29T13:05:50Z</time>
        <extensions>
          <geotracker:meta c="4.76" s="1.05" />
        </extensions>
      </trkpt>
      <trkpt lat="43.36557909" lon="-71.46019419">
        <ele>122.6</ele>
        <time>2026-04-29T13:06:01Z</time>
        <extensions>
          <geotracker:meta c="4.33" s="1.15" />
        </extensions>
      </trkpt>
      <trkpt lat="43.36554072" lon="-71.46031389">
        <ele>121.7</ele>
        <time>2026-04-29T13:06:10Z</time>
        <extensions>
          <geotracker:meta c="4.17" s="1.17" />
        </extensions>
      </trkpt>
      <trkpt lat="43.36549903" lon="-71.460425">
        <ele>121.22</ele>
        <time>2026-04-29T13:06:19Z</time>
        <extensions>
          <geotracker:meta c="4.32" s="1.12" />
        </extensions>
      </trkpt>
      <trkpt lat="43.36544762" lon="-71.46053514">
        <ele>120.83</ele>
        <time>2026-04-29T13:06:28Z</time>
        <extensions>
          <geotracker:meta c="3.98" s="1.22" />
        </extensions>
      </trkpt>
      <trkpt lat="43.36539487" lon="-71.46064358">
        <ele>121.05</ele>
        <time>2026-04-29T13:06:36Z</time>
        <extensions>
          <geotracker:meta c="4.02" s="1.26" />
        </extensions>
      </trkpt>
      <trkpt lat="43.36533182" lon="-71.46074251">
        <ele>122.16</ele>
        <time>2026-04-29T13:06:44Z</time>
        <extensions>
          <geotracker:meta c="4.02" s="1.33" />
        </extensions>
      </trkpt>
      <trkpt lat="43.36526125" lon="-71.4608277">
        <ele>122.22</ele>
        <time>2026-04-29T13:06:52Z</time>
        <extensions>
          <geotracker:meta c="3.84" s="1.24" />
        </extensions>
      </trkpt>
      <trkpt lat="43.36518406" lon="-71.46090269">
        <ele>122.2</ele>
        <time>2026-04-29T13:07:01Z</time>
        <extensions>
          <geotracker:meta c="3.71" s="1.18" />
        </extensions>
      </trkpt>
      <trkpt lat="43.36509241" lon="-71.46094557">
        <ele>121.96</ele>
        <time>2026-04-29T13:07:11Z</time>
        <extensions>
          <geotracker:meta c="3.38" s="1.23" />
        </extensions>
      </trkpt>
      <trkpt lat="43.36499321" lon="-71.46095796">
        <ele>120.46</ele>
        <time>2026-04-29T13:07:21Z</time>
        <extensions>
          <geotracker:meta c="3.12" s="1.23" />
        </extensions>
      </trkpt>
      <trkpt lat="43.36489587" lon="-71.46096077">
        <ele>120.29</ele>
        <time>2026-04-29T13:07:30Z</time>
        <extensions>
          <geotracker:meta c="3.18" s="1.12" />
        </extensions>
      </trkpt>
      <trkpt lat="43.36480635" lon="-71.46097417">
        <ele>119.59</ele>
        <time>2026-04-29T13:07:38Z</time>
        <extensions>
          <geotracker:meta c="3" s="1.24" />
        </extensions>
      </trkpt>
      <trkpt lat="43.36471296" lon="-71.46097211">
        <ele>118.06</ele>
        <time>2026-04-29T13:07:47Z</time>
        <extensions>
          <geotracker:meta c="3.05" s="1.14" />
        </extensions>
      </trkpt>
    </trkseg>
  </trk>
</gpx>