<?xml version="1.0" encoding="UTF-8"?>
<gpx version="1.1" creator="autonomous-track-reconstruction"
  xmlns="http://www.topografix.com/GPX/1/1">
  <trk>
    <name>NHautocross stitched</name>
    <trkseg>
      <trkpt lat="43.36503094076923" lon="-71.46050277384616"><ele>118.455</ele><time>2026-04-29T12:56:48Z</time></trkpt>
      <trkpt lat="43.365031476153845" lon="-71.46049748076923"><ele>118.48</ele><time>2026-04-29T12:56:49Z</time></trkpt>
      <trkpt lat="43.36503201153846" lon="-71.46049218769231"><ele>118.505</ele><time>2026-04-29T12:56:50Z</time></trkpt>
      <trkpt lat="43.365032546923075" lon="-71.46048689461539"><ele>118.53</ele><time>2026-04-29T12:56:51Z</time></trkpt>
      <trkpt lat="43.36503308230769" lon="-71.46048160153846"><ele>118.555</ele><time>2026-04-29T12:56:52Z</time></trkpt>
      <trkpt lat="43.36503361769231" lon="-71.46047630846154"><ele>118.58</ele><time>2026-04-29T12:56:53Z</time></trkpt>
      <trkpt lat="43.36503415307693" lon="-71.46047101538461"><ele>118.605</ele><time>2026-04-29T12:56:54Z</time></trkpt>
      <trkpt lat="43.36503468846154" lon="-71.4604657223077"><ele>118.63000000000001</ele><time>2026-04-29T12:56:55Z</time></trkpt>
      <trkpt lat="43.36503522384616" lon="-71.46046042923078"><ele>118.655</ele><time>2026-04-29T12:56:56Z</time></trkpt>
      <trkpt lat="43.36503575923077" lon="-71.46045513615385"><ele>118.68</ele><time>2026-04-29T12:56:57Z</time></trkpt>
      <trkpt lat="43.365036294615386" lon="-71.46044984307693"><ele>118.705</ele><time>2026-04-29T12:56:58Z</time></trkpt>
      <trkpt lat="43.36503683" lon="-71.46044455"><ele>118.73</ele><time>2026-04-29T12:56:59Z</time></trkpt>
      <trkpt lat="43.36504147875" lon="-71.46042933000001"><ele>118.805</ele><time>2026-04-29T12:57:00Z</time></trkpt>
      <trkpt lat="43.3650461275" lon="-71.46041411"><ele>118.88</ele><time>2026-04-29T12:57:01Z</time></trkpt>
      <trkpt lat="43.36505077625" lon="-71.46039889000001"><ele>118.955</ele><time>2026-04-29T12:57:02Z</time></trkpt>
      <trkpt lat="43.365055425" lon="-71.46038367"><ele>119.03</ele><time>2026-04-29T12:57:03Z</time></trkpt>
      <trkpt lat="43.36506007375" lon="-71.46036845"><ele>119.105</ele><time>2026-04-29T12:57:04Z</time></trkpt>
      <trkpt lat="43.3650647225" lon="-71.46035323000001"><ele>119.18</ele><time>2026-04-29T12:57:05Z</time></trkpt>
      <trkpt lat="43.36506937125" lon="-71.46033801"><ele>119.255</ele><time>2026-04-29T12:57:06Z</time></trkpt>
      <trkpt lat="43.36507402" lon="-71.46032279"><ele>119.33</ele><time>2026-04-29T12:57:07Z</time></trkpt>
      <trkpt lat="43.365079325" lon="-71.46030746625"><ele>119.24</ele><time>2026-04-29T12:57:08Z</time></trkpt>
      <trkpt lat="43.36508463" lon="-71.46029214250001"><ele>119.15</ele><time>2026-04-29T12:57:09Z</time></trkpt>
      <trkpt lat="43.365089935" lon="-71.46027681875"><ele>119.06</ele><time>2026-04-29T12:57:10Z</time></trkpt>
      <trkpt lat="43.36509524" lon="-71.460261495"><ele>118.97</ele><time>2026-04-29T12:57:11Z</time></trkpt>
      <trkpt lat="43.365100545000004" lon="-71.46024617125"><ele>118.88</ele><time>2026-04-29T12:57:12Z</time></trkpt>
      <trkpt lat="43.365105850000006" lon="-71.4602308475"><ele>118.78999999999999</ele><time>2026-04-29T12:57:13Z</time></trkpt>
      <trkpt lat="43.365111155" lon="-71.46021552375001"><ele>118.7</ele><time>2026-04-29T12:57:14Z</time></trkpt>
      <trkpt lat="43.36511646" lon="-71.4602002"><ele>118.61</ele><time>2026-04-29T12:57:15Z</time></trkpt>
      <trkpt lat="43.365120431250006" lon="-71.4601849675"><ele>118.57375</ele><time>2026-04-29T12:57:16Z</time></trkpt>
      <trkpt lat="43.3651244025" lon="-71.460169735"><ele>118.5375</ele><time>2026-04-29T12:57:17Z</time></trkpt>
      <trkpt lat="43.365128373750004" lon="-71.4601545025"><ele>118.50125</ele><time>2026-04-29T12:57:18Z</time></trkpt>
      <trkpt lat="43.365132345000006" lon="-71.46013927"><ele>118.465</ele><time>2026-04-29T12:57:19Z</time></trkpt>
      <trkpt lat="43.36513631625" lon="-71.4601240375"><ele>118.42875</ele><time>2026-04-29T12:57:20Z</time></trkpt>
      <trkpt lat="43.365140287500004" lon="-71.460108805"><ele>118.3925</ele><time>2026-04-29T12:57:21Z</time></trkpt>
      <trkpt lat="43.36514425875" lon="-71.4600935725"><ele>118.35624999999999</ele><time>2026-04-29T12:57:22Z</time></trkpt>
      <trkpt lat="43.36514823" lon="-71.46007834"><ele>118.32</ele><time>2026-04-29T12:57:23Z</time></trkpt>
      <trkpt lat="43.365151780000005" lon="-71.46006316625"><ele>118.29249999999999</ele><time>2026-04-29T12:57:24Z</time></trkpt>
      <trkpt lat="43.36515533" lon="-71.4600479925"><ele>118.26499999999999</ele><time>2026-04-29T12:57:25Z</time></trkpt>
      <trkpt lat="43.36515888" lon="-71.46003281875"><ele>118.2375</ele><time>2026-04-29T12:57:26Z</time></trkpt>
      <trkpt lat="43.36516243" lon="-71.460017645"><ele>118.21</ele><time>2026-04-29T12:57:27Z</time></trkpt>
      <trkpt lat="43.36516598" lon="-71.46000247125001"><ele>118.18249999999999</ele><time>2026-04-29T12:57:28Z</time></trkpt>
      <trkpt lat="43.36516953" lon="-71.4599872975"><ele>118.155</ele><time>2026-04-29T12:57:29Z</time></trkpt>
      <trkpt lat="43.36517308" lon="-71.45997212375"><ele>118.1275</ele><time>2026-04-29T12:57:30Z</time></trkpt>
      <trkpt lat="43.36517663" lon="-71.45995695"><ele>118.1</ele><time>2026-04-29T12:57:31Z</time></trkpt>
      <trkpt lat="43.36518045625" lon="-71.45994080125"><ele>118.1125</ele><time>2026-04-29T12:57:32Z</time></trkpt>
      <trkpt lat="43.365184282499996" lon="-71.4599246525"><ele>118.125</ele><time>2026-04-29T12:57:33Z</time></trkpt>
      <trkpt lat="43.36518810875" lon="-71.45990850375"><ele>118.1375</ele><time>2026-04-29T12:57:34Z</time></trkpt>
      <trkpt lat="43.365191935" lon="-71.459892355"><ele>118.15</ele><time>2026-04-29T12:57:35Z</time></trkpt>
      <trkpt lat="43.36519576125" lon="-71.45987620625"><ele>118.1625</ele><time>2026-04-29T12:57:36Z</time></trkpt>
      <trkpt lat="43.3651995875" lon="-71.4598600575"><ele>118.175</ele><time>2026-04-29T12:57:37Z</time></trkpt>
      <trkpt lat="43.365203413749995" lon="-71.45984390875"><ele>118.1875</ele><time>2026-04-29T12:57:38Z</time></trkpt>
      <trkpt lat="43.36520724" lon="-71.45982776"><ele>118.2</ele><time>2026-04-29T12:57:39Z</time></trkpt>
      <trkpt lat="43.36521303625" lon="-71.45981383499999"><ele>118.29125</ele><time>2026-04-29T12:57:40Z</time></trkpt>
      <trkpt lat="43.3652188325" lon="-71.45979991"><ele>118.38250000000001</ele><time>2026-04-29T12:57:41Z</time></trkpt>
      <trkpt lat="43.36522462875" lon="-71.459785985"><ele>118.47375000000001</ele><time>2026-04-29T12:57:42Z</time></trkpt>
      <trkpt lat="43.365230425" lon="-71.45977206"><ele>118.565</ele><time>2026-04-29T12:57:43Z</time></trkpt>
      <trkpt lat="43.36523622125" lon="-71.459758135"><ele>118.65625</ele><time>2026-04-29T12:57:44Z</time></trkpt>
      <trkpt lat="43.3652420175" lon="-71.45974421"><ele>118.7475</ele><time>2026-04-29T12:57:45Z</time></trkpt>
      <trkpt lat="43.36524781375" lon="-71.459730285"><ele>118.83875</ele><time>2026-04-29T12:57:46Z</time></trkpt>
      <trkpt lat="43.36525361" lon="-71.45971636"><ele>118.93</ele><time>2026-04-29T12:57:47Z</time></trkpt>
      <trkpt lat="43.3652593675" lon="-71.45970205875"><ele>118.94375000000001</ele><time>2026-04-29T12:57:48Z</time></trkpt>
      <trkpt lat="43.365265125" lon="-71.4596877575"><ele>118.95750000000001</ele><time>2026-04-29T12:57:49Z</time></trkpt>
      <trkpt lat="43.3652708825" lon="-71.45967345625"><ele>118.97125000000001</ele><time>2026-04-29T12:57:50Z</time></trkpt>
      <trkpt lat="43.365276640000005" lon="-71.459659155"><ele>118.98500000000001</ele><time>2026-04-29T12:57:51Z</time></trkpt>
      <trkpt lat="43.3652823975" lon="-71.45964485375"><ele>118.99875</ele><time>2026-04-29T12:57:52Z</time></trkpt>
      <trkpt lat="43.365288155" lon="-71.4596305525"><ele>119.0125</ele><time>2026-04-29T12:57:53Z</time></trkpt>
      <trkpt lat="43.3652939125" lon="-71.45961625125001"><ele>119.02625</ele><time>2026-04-29T12:57:54Z</time></trkpt>
      <trkpt lat="43.36529967" lon="-71.45960195"><ele>119.04</ele><time>2026-04-29T12:57:55Z</time></trkpt>
      <trkpt lat="43.36530372875" lon="-71.4595859875"><ele>118.96375</ele><time>2026-04-29T12:57:56Z</time></trkpt>
      <trkpt lat="43.3653077875" lon="-71.459570025"><ele>118.8875</ele><time>2026-04-29T12:57:57Z</time></trkpt>
      <trkpt lat="43.36531184625" lon="-71.4595540625"><ele>118.81125</ele><time>2026-04-29T12:57:58Z</time></trkpt>
      <trkpt lat="43.365315905" lon="-71.4595381"><ele>118.73500000000001</ele><time>2026-04-29T12:57:59Z</time></trkpt>
      <trkpt lat="43.36531996375" lon="-71.4595221375"><ele>118.65875000000001</ele><time>2026-04-29T12:58:00Z</time></trkpt>
      <trkpt lat="43.3653240225" lon="-71.459506175"><ele>118.58250000000001</ele><time>2026-04-29T12:58:01Z</time></trkpt>
      <trkpt lat="43.36532808125" lon="-71.4594902125"><ele>118.50625000000001</ele><time>2026-04-29T12:58:02Z</time></trkpt>
      <trkpt lat="43.36533214" lon="-71.45947425"><ele>118.43</ele><time>2026-04-29T12:58:03Z</time></trkpt>
      <trkpt lat="43.365332612857145" lon="-71.45945633285714"><ele>118.25285714285715</ele><time>2026-04-29T12:58:04Z</time></trkpt>
      <trkpt lat="43.36533308571428" lon="-71.45943841571429"><ele>118.07571428571428</ele><time>2026-04-29T12:58:05Z</time></trkpt>
      <trkpt lat="43.36533355857143" lon="-71.45942049857143"><ele>117.89857142857143</ele><time>2026-04-29T12:58:06Z</time></trkpt>
      <trkpt lat="43.365334031428574" lon="-71.45940258142856"><ele>117.72142857142858</ele><time>2026-04-29T12:58:07Z</time></trkpt>
      <trkpt lat="43.36533450428572" lon="-71.45938466428571"><ele>117.54428571428572</ele><time>2026-04-29T12:58:08Z</time></trkpt>
      <trkpt lat="43.36533497714286" lon="-71.45936674714285"><ele>117.36714285714285</ele><time>2026-04-29T12:58:09Z</time></trkpt>
      <trkpt lat="43.36533545" lon="-71.45934883"><ele>117.19</ele><time>2026-04-29T12:58:10Z</time></trkpt>
      <trkpt lat="43.36533303" lon="-71.45933183"><ele>117.11125</ele><time>2026-04-29T12:58:11Z</time></trkpt>
      <trkpt lat="43.36533061" lon="-71.45931483"><ele>117.0325</ele><time>2026-04-29T12:58:12Z</time></trkpt>
      <trkpt lat="43.36532819" lon="-71.45929783"><ele>116.95375</ele><time>2026-04-29T12:58:13Z</time></trkpt>
      <trkpt lat="43.36532577" lon="-71.45928083"><ele>116.875</ele><time>2026-04-29T12:58:14Z</time></trkpt>
      <trkpt lat="43.365323350000004" lon="-71.45926383"><ele>116.79625</ele><time>2026-04-29T12:58:15Z</time></trkpt>
      <trkpt lat="43.36532093" lon="-71.45924683"><ele>116.7175</ele><time>2026-04-29T12:58:16Z</time></trkpt>
      <trkpt lat="43.36531851" lon="-71.45922983"><ele>116.63875</ele><time>2026-04-29T12:58:17Z</time></trkpt>
      <trkpt lat="43.36531609" lon="-71.45921283"><ele>116.56</ele><time>2026-04-29T12:58:18Z</time></trkpt>
      <trkpt lat="43.3653118925" lon="-71.459197315"><ele>116.64</ele><time>2026-04-29T12:58:19Z</time></trkpt>
      <trkpt lat="43.365307695" lon="-71.4591818"><ele>116.72</ele><time>2026-04-29T12:58:20Z</time></trkpt>
      <trkpt lat="43.3653034975" lon="-71.459166285"><ele>116.8</ele><time>2026-04-29T12:58:21Z</time></trkpt>
      <trkpt lat="43.365299300000004" lon="-71.45915077000001"><ele>116.88</ele><time>2026-04-29T12:58:22Z</time></trkpt>
      <trkpt lat="43.3652951025" lon="-71.459135255"><ele>116.96000000000001</ele><time>2026-04-29T12:58:23Z</time></trkpt>
      <trkpt lat="43.365290905" lon="-71.45911974"><ele>117.04</ele><time>2026-04-29T12:58:24Z</time></trkpt>
      <trkpt lat="43.3652867075" lon="-71.459104225"><ele>117.12</ele><time>2026-04-29T12:58:25Z</time></trkpt>
      <trkpt lat="43.36528251" lon="-71.45908871"><ele>117.2</ele><time>2026-04-29T12:58:26Z</time></trkpt>
      <trkpt lat="43.36527230285714" lon="-71.45907774285715"><ele>117.34857142857143</ele><time>2026-04-29T12:58:27Z</time></trkpt>
      <trkpt lat="43.365262095714286" lon="-71.45906677571429"><ele>117.49714285714286</ele><time>2026-04-29T12:58:28Z</time></trkpt>
      <trkpt lat="43.36525188857143" lon="-71.45905580857143"><ele>117.64571428571429</ele><time>2026-04-29T12:58:29Z</time></trkpt>
      <trkpt lat="43.36524168142857" lon="-71.45904484142856"><ele>117.7942857142857</ele><time>2026-04-29T12:58:30Z</time></trkpt>
      <trkpt lat="43.365231474285714" lon="-71.45903387428571"><ele>117.94285714285714</ele><time>2026-04-29T12:58:31Z</time></trkpt>
      <trkpt lat="43.36522126714286" lon="-71.45902290714285"><ele>118.09142857142857</ele><time>2026-04-29T12:58:32Z</time></trkpt>
      <trkpt lat="43.36521106" lon="-71.45901194"><ele>118.24</ele><time>2026-04-29T12:58:33Z</time></trkpt>
      <trkpt lat="43.36519869714286" lon="-71.45900650857142"><ele>118.24857142857142</ele><time>2026-04-29T12:58:34Z</time></trkpt>
      <trkpt lat="43.36518633428572" lon="-71.45900107714286"><ele>118.25714285714285</ele><time>2026-04-29T12:58:35Z</time></trkpt>
      <trkpt lat="43.365173971428575" lon="-71.45899564571428"><ele>118.26571428571428</ele><time>2026-04-29T12:58:36Z</time></trkpt>
      <trkpt lat="43.36516160857143" lon="-71.45899021428572"><ele>118.27428571428571</ele><time>2026-04-29T12:58:37Z</time></trkpt>
      <trkpt lat="43.365149245714285" lon="-71.45898478285714"><ele>118.28285714285714</ele><time>2026-04-29T12:58:38Z</time></trkpt>
      <trkpt lat="43.36513688285714" lon="-71.45897935142858"><ele>118.29142857142857</ele><time>2026-04-29T12:58:39Z</time></trkpt>
      <trkpt lat="43.36512452" lon="-71.45897392"><ele>118.3</ele><time>2026-04-29T12:58:40Z</time></trkpt>
      <trkpt lat="43.36511188714286" lon="-71.45896861571428"><ele>118.24285714285715</ele><time>2026-04-29T12:58:41Z</time></trkpt>
      <trkpt lat="43.36509925428572" lon="-71.45896331142858"><ele>118.18571428571428</ele><time>2026-04-29T12:58:42Z</time></trkpt>
      <trkpt lat="43.365086621428574" lon="-71.45895800714285"><ele>118.12857142857143</ele><time>2026-04-29T12:58:43Z</time></trkpt>
      <trkpt lat="43.365073988571424" lon="-71.45895270285715"><ele>118.07142857142857</ele><time>2026-04-29T12:58:44Z</time></trkpt>
      <trkpt lat="43.36506135571428" lon="-71.45894739857142"><ele>118.01428571428572</ele><time>2026-04-29T12:58:45Z</time></trkpt>
      <trkpt lat="43.36504872285714" lon="-71.45894209428572"><ele>117.95714285714286</ele><time>2026-04-29T12:58:46Z</time></trkpt>
      <trkpt lat="43.36503609" lon="-71.45893679"><ele>117.9</ele><time>2026-04-29T12:58:47Z</time></trkpt>
      <trkpt lat="43.3650245" lon="-71.45892836285714"><ele>117.90142857142858</ele><time>2026-04-29T12:58:48Z</time></trkpt>
      <trkpt lat="43.36501291" lon="-71.45891993571428"><ele>117.90285714285714</ele><time>2026-04-29T12:58:49Z</time></trkpt>
      <trkpt lat="43.36500132" lon="-71.45891150857142"><ele>117.90428571428572</ele><time>2026-04-29T12:58:50Z</time></trkpt>
      <trkpt lat="43.36498973" lon="-71.45890308142857"><ele>117.90571428571428</ele><time>2026-04-29T12:58:51Z</time></trkpt>
      <trkpt lat="43.36497814" lon="-71.45889465428571"><ele>117.90714285714286</ele><time>2026-04-29T12:58:52Z</time></trkpt>
      <trkpt lat="43.36496655" lon="-71.45888622714286"><ele>117.90857142857142</ele><time>2026-04-29T12:58:53Z</time></trkpt>
      <trkpt lat="43.36495496" lon="-71.4588778"><ele>117.91</ele><time>2026-04-29T12:58:54Z</time></trkpt>
      <trkpt lat="43.364945559999995" lon="-71.45886404714285"><ele>117.99857142857142</ele><time>2026-04-29T12:58:55Z</time></trkpt>
      <trkpt lat="43.36493616" lon="-71.45885029428571"><ele>118.08714285714285</ele><time>2026-04-29T12:58:56Z</time></trkpt>
      <trkpt lat="43.364926759999996" lon="-71.45883654142857"><ele>118.17571428571428</ele><time>2026-04-29T12:58:57Z</time></trkpt>
      <trkpt lat="43.36491736" lon="-71.45882278857142"><ele>118.26428571428572</ele><time>2026-04-29T12:58:58Z</time></trkpt>
      <trkpt lat="43.36490796" lon="-71.45880903571428"><ele>118.35285714285715</ele><time>2026-04-29T12:58:59Z</time></trkpt>
      <trkpt lat="43.36489856" lon="-71.45879528285714"><ele>118.44142857142857</ele><time>2026-04-29T12:59:00Z</time></trkpt>
      <trkpt lat="43.36488916" lon="-71.45878153"><ele>118.53</ele><time>2026-04-29T12:59:01Z</time></trkpt>
      <trkpt lat="43.36488057875" lon="-71.4587700675"><ele>118.66125</ele><time>2026-04-29T12:59:02Z</time></trkpt>
      <trkpt lat="43.364871997499996" lon="-71.458758605"><ele>118.7925</ele><time>2026-04-29T12:59:03Z</time></trkpt>
      <trkpt lat="43.364863416249996" lon="-71.4587471425"><ele>118.92375</ele><time>2026-04-29T12:59:04Z</time></trkpt>
      <trkpt lat="43.364854835" lon="-71.45873567999999"><ele>119.055</ele><time>2026-04-29T12:59:05Z</time></trkpt>
      <trkpt lat="43.36484625375" lon="-71.45872421749999"><ele>119.18625</ele><time>2026-04-29T12:59:06Z</time></trkpt>
      <trkpt lat="43.3648376725" lon="-71.458712755"><ele>119.3175</ele><time>2026-04-29T12:59:07Z</time></trkpt>
      <trkpt lat="43.36482909125" lon="-71.4587012925"><ele>119.44875</ele><time>2026-04-29T12:59:08Z</time></trkpt>
      <trkpt lat="43.36482051" lon="-71.45868983"><ele>119.58</ele><time>2026-04-29T12:59:09Z</time></trkpt>
      <trkpt lat="43.36481521933334" lon="-71.458684706"><ele>119.582</ele><time>2026-04-29T12:59:10Z</time></trkpt>
      <trkpt lat="43.364809928666666" lon="-71.458679582"><ele>119.584</ele><time>2026-04-29T12:59:11Z</time></trkpt>
      <trkpt lat="43.364804638" lon="-71.458674458"><ele>119.586</ele><time>2026-04-29T12:59:12Z</time></trkpt>
      <trkpt lat="43.36479934733333" lon="-71.45866933399999"><ele>119.588</ele><time>2026-04-29T12:59:13Z</time></trkpt>
      <trkpt lat="43.36479405666667" lon="-71.45866421"><ele>119.59</ele><time>2026-04-29T12:59:14Z</time></trkpt>
      <trkpt lat="43.364788766000004" lon="-71.458659086"><ele>119.592</ele><time>2026-04-29T12:59:15Z</time></trkpt>
      <trkpt lat="43.36478347533333" lon="-71.458653962"><ele>119.594</ele><time>2026-04-29T12:59:16Z</time></trkpt>
      <trkpt lat="43.36477818466667" lon="-71.458648838"><ele>119.596</ele><time>2026-04-29T12:59:17Z</time></trkpt>
      <trkpt lat="43.364772894" lon="-71.458643714"><ele>119.598</ele><time>2026-04-29T12:59:18Z</time></trkpt>
      <trkpt lat="43.364767603333334" lon="-71.45863859"><ele>119.6</ele><time>2026-04-29T12:59:19Z</time></trkpt>
      <trkpt lat="43.36476231266667" lon="-71.45863346600001"><ele>119.602</ele><time>2026-04-29T12:59:20Z</time></trkpt>
      <trkpt lat="43.364757022" lon="-71.458628342"><ele>119.604</ele><time>2026-04-29T12:59:21Z</time></trkpt>
      <trkpt lat="43.364751731333335" lon="-71.458623218"><ele>119.606</ele><time>2026-04-29T12:59:22Z</time></trkpt>
      <trkpt lat="43.364746440666664" lon="-71.458618094"><ele>119.608</ele><time>2026-04-29T12:59:23Z</time></trkpt>
      <trkpt lat="43.36474115" lon="-71.45861297"><ele>119.61</ele><time>2026-04-29T12:59:24Z</time></trkpt>
      <trkpt lat="43.364730933333334" lon="-71.45860967222222"><ele>119.55111111111111</ele><time>2026-04-29T12:59:25Z</time></trkpt>
      <trkpt lat="43.36472071666667" lon="-71.45860637444444"><ele>119.49222222222222</ele><time>2026-04-29T12:59:26Z</time></trkpt>
      <trkpt lat="43.3647105" lon="-71.45860307666668"><ele>119.43333333333334</ele><time>2026-04-29T12:59:27Z</time></trkpt>
      <trkpt lat="43.364700283333335" lon="-71.4585997788889"><ele>119.37444444444445</ele><time>2026-04-29T12:59:28Z</time></trkpt>
      <trkpt lat="43.36469006666667" lon="-71.45859648111112"><ele>119.31555555555555</ele><time>2026-04-29T12:59:29Z</time></trkpt>
      <trkpt lat="43.36467985" lon="-71.45859318333333"><ele>119.25666666666666</ele><time>2026-04-29T12:59:30Z</time></trkpt>
      <trkpt lat="43.364669633333335" lon="-71.45858988555557"><ele>119.19777777777777</ele><time>2026-04-29T12:59:31Z</time></trkpt>
      <trkpt lat="43.36465941666667" lon="-71.45858658777779"><ele>119.13888888888889</ele><time>2026-04-29T12:59:32Z</time></trkpt>
      <trkpt lat="43.3646492" lon="-71.45858329"><ele>119.08</ele><time>2026-04-29T12:59:33Z</time></trkpt>
      <trkpt lat="43.36463689875" lon="-71.4585805575"><ele>119.1225</ele><time>2026-04-29T12:59:34Z</time></trkpt>
      <trkpt lat="43.364624597500004" lon="-71.458577825"><ele>119.16499999999999</ele><time>2026-04-29T12:59:35Z</time></trkpt>
      <trkpt lat="43.36461229625" lon="-71.45857509250001"><ele>119.2075</ele><time>2026-04-29T12:59:36Z</time></trkpt>
      <trkpt lat="43.364599995000006" lon="-71.45857236"><ele>119.25</ele><time>2026-04-29T12:59:37Z</time></trkpt>
      <trkpt lat="43.36458769375" lon="-71.4585696275"><ele>119.2925</ele><time>2026-04-29T12:59:38Z</time></trkpt>
      <trkpt lat="43.3645753925" lon="-71.458566895"><ele>119.33500000000001</ele><time>2026-04-29T12:59:39Z</time></trkpt>
      <trkpt lat="43.364563091250005" lon="-71.45856416250001"><ele>119.3775</ele><time>2026-04-29T12:59:40Z</time></trkpt>
      <trkpt lat="43.36455079" lon="-71.45856143"><ele>119.42</ele><time>2026-04-29T12:59:41Z</time></trkpt>
      <trkpt lat="43.364538735000004" lon="-71.45856134375"><ele>119.41875</ele><time>2026-04-29T12:59:42Z</time></trkpt>
      <trkpt lat="43.364526680000004" lon="-71.45856125750001"><ele>119.4175</ele><time>2026-04-29T12:59:43Z</time></trkpt>
      <trkpt lat="43.364514625000005" lon="-71.45856117125"><ele>119.41625</ele><time>2026-04-29T12:59:44Z</time></trkpt>
      <trkpt lat="43.36450257" lon="-71.458561085"><ele>119.41499999999999</ele><time>2026-04-29T12:59:45Z</time></trkpt>
      <trkpt lat="43.364490515" lon="-71.45856099875"><ele>119.41375</ele><time>2026-04-29T12:59:46Z</time></trkpt>
      <trkpt lat="43.36447846" lon="-71.45856091249999"><ele>119.4125</ele><time>2026-04-29T12:59:47Z</time></trkpt>
      <trkpt lat="43.364466405" lon="-71.45856082625"><ele>119.41125</ele><time>2026-04-29T12:59:48Z</time></trkpt>
      <trkpt lat="43.36445435" lon="-71.45856074"><ele>119.41</ele><time>2026-04-29T12:59:49Z</time></trkpt>
      <trkpt lat="43.36445056238994" lon="-71.45855783616003"><ele>119.4466142557652</ele><time>2026-04-29T12:59:50Z</time></trkpt>
      <trkpt lat="43.36444677477988" lon="-71.45855493232006"><ele>119.4832285115304</ele><time>2026-04-29T12:59:51Z</time></trkpt>
      <trkpt lat="43.36444298716982" lon="-71.45855202848009"><ele>119.5198427672956</ele><time>2026-04-29T12:59:52Z</time></trkpt>
      <trkpt lat="43.36443919955975" lon="-71.45854912464011"><ele>119.55645702306079</ele><time>2026-04-29T12:59:53Z</time></trkpt>
      <trkpt lat="43.364435411949685" lon="-71.45854622080013"><ele>119.59307127882599</ele><time>2026-04-29T12:59:54Z</time></trkpt>
      <trkpt lat="43.36443162433962" lon="-71.45854331696016"><ele>119.62968553459119</ele><time>2026-04-29T12:59:55Z</time></trkpt>
      <trkpt lat="43.36442783672956" lon="-71.45854041312019"><ele>119.66629979035639</ele><time>2026-04-29T12:59:56Z</time></trkpt>
      <trkpt lat="43.3644240491195" lon="-71.45853750928022"><ele>119.70291404612159</ele><time>2026-04-29T12:59:57Z</time></trkpt>
      <trkpt lat="43.36442026150944" lon="-71.45853460544025"><ele>119.73952830188679</ele><time>2026-04-29T12:59:58Z</time></trkpt>
      <trkpt lat="43.364416473899375" lon="-71.45853170160028"><ele>119.776142557652</ele><time>2026-04-29T12:59:59Z</time></trkpt>
      <trkpt lat="43.36441268628931" lon="-71.45852879776031"><ele>119.8127568134172</ele><time>2026-04-29T13:00:00Z</time></trkpt>
      <trkpt lat="43.364408898679244" lon="-71.45852589392034"><ele>119.84937106918238</ele><time>2026-04-29T13:00:01Z</time></trkpt>
      <trkpt lat="43.36440511106918" lon="-71.45852299008037"><ele>119.88598532494758</ele><time>2026-04-29T13:00:02Z</time></trkpt>
      <trkpt lat="43.36440132345912" lon="-71.45852008624038"><ele>119.92259958071278</ele><time>2026-04-29T13:00:03Z</time></trkpt>
      <trkpt lat="43.36439753584906" lon="-71.45851718240041"><ele>119.95921383647799</ele><time>2026-04-29T13:00:04Z</time></trkpt>
      <trkpt lat="43.364393748238996" lon="-71.45851427856044"><ele>119.99582809224319</ele><time>2026-04-29T13:00:05Z</time></trkpt>
      <trkpt lat="43.364389960628934" lon="-71.45851137472047"><ele>120.03244234800839</ele><time>2026-04-29T13:00:06Z</time></trkpt>
      <trkpt lat="43.36438617301887" lon="-71.4585084708805"><ele>120.06905660377359</ele><time>2026-04-29T13:00:07Z</time></trkpt>
      <trkpt lat="43.36438238540881" lon="-71.45850556704053"><ele>120.10567085953879</ele><time>2026-04-29T13:00:08Z</time></trkpt>
      <trkpt lat="43.36437859779874" lon="-71.45850266320056"><ele>120.14228511530398</ele><time>2026-04-29T13:00:09Z</time></trkpt>
      <trkpt lat="43.36437481018868" lon="-71.45849975936059"><ele>120.17889937106918</ele><time>2026-04-29T13:00:10Z</time></trkpt>
      <trkpt lat="43.36437102257862" lon="-71.45849685552062"><ele>120.21551362683438</ele><time>2026-04-29T13:00:11Z</time></trkpt>
      <trkpt lat="43.364367234968554" lon="-71.45849395168064"><ele>120.25212788259958</ele><time>2026-04-29T13:00:12Z</time></trkpt>
      <trkpt lat="43.36436344735849" lon="-71.45849104784067"><ele>120.28874213836478</ele><time>2026-04-29T13:00:13Z</time></trkpt>
      <trkpt lat="43.36435965974843" lon="-71.4584881440007"><ele>120.32535639412998</ele><time>2026-04-29T13:00:14Z</time></trkpt>
      <trkpt lat="43.36435587213837" lon="-71.45848524016073"><ele>120.36197064989518</ele><time>2026-04-29T13:00:15Z</time></trkpt>
      <trkpt lat="43.364352084528306" lon="-71.45848233632076"><ele>120.39858490566039</ele><time>2026-04-29T13:00:16Z</time></trkpt>
      <trkpt lat="43.36434829691824" lon="-71.45847943248079"><ele>120.43519916142557</ele><time>2026-04-29T13:00:17Z</time></trkpt>
      <trkpt lat="43.364344509308175" lon="-71.45847652864082"><ele>120.47181341719077</ele><time>2026-04-29T13:00:18Z</time></trkpt>
      <trkpt lat="43.36434072169811" lon="-71.45847362480085"><ele>120.50842767295597</ele><time>2026-04-29T13:00:19Z</time></trkpt>
      <trkpt lat="43.36433693408805" lon="-71.45847072096088"><ele>120.54504192872118</ele><time>2026-04-29T13:00:20Z</time></trkpt>
      <trkpt lat="43.36433314647799" lon="-71.45846781712089"><ele>120.58165618448638</ele><time>2026-04-29T13:00:21Z</time></trkpt>
      <trkpt lat="43.36432935886793" lon="-71.45846491328092"><ele>120.61827044025158</ele><time>2026-04-29T13:00:22Z</time></trkpt>
      <trkpt lat="43.364325571257865" lon="-71.45846200944095"><ele>120.65488469601678</ele><time>2026-04-29T13:00:23Z</time></trkpt>
      <trkpt lat="43.364321783647796" lon="-71.45845910560098"><ele>120.69149895178197</ele><time>2026-04-29T13:00:24Z</time></trkpt>
      <trkpt lat="43.364317996037734" lon="-71.45845620176101"><ele>120.72811320754717</ele><time>2026-04-29T13:00:25Z</time></trkpt>
      <trkpt lat="43.36431420842767" lon="-71.45845329792104"><ele>120.76472746331237</ele><time>2026-04-29T13:00:26Z</time></trkpt>
      <trkpt lat="43.36431042081761" lon="-71.45845039408107"><ele>120.80134171907757</ele><time>2026-04-29T13:00:27Z</time></trkpt>
      <trkpt lat="43.36430663320755" lon="-71.4584474902411"><ele>120.83795597484277</ele><time>2026-04-29T13:00:28Z</time></trkpt>
      <trkpt lat="43.364302845597486" lon="-71.45844458640113"><ele>120.87457023060797</ele><time>2026-04-29T13:00:29Z</time></trkpt>
      <trkpt lat="43.364299057987424" lon="-71.45844168256114"><ele>120.91118448637317</ele><time>2026-04-29T13:00:30Z</time></trkpt>
      <trkpt lat="43.36429527037736" lon="-71.45843877872117"><ele>120.94779874213837</ele><time>2026-04-29T13:00:31Z</time></trkpt>
      <trkpt lat="43.36429148276729" lon="-71.4584358748812"><ele>120.98441299790356</ele><time>2026-04-29T13:00:32Z</time></trkpt>
      <trkpt lat="43.36428769515723" lon="-71.45843297104123"><ele>121.02102725366876</ele><time>2026-04-29T13:00:33Z</time></trkpt>
      <trkpt lat="43.36428390754717" lon="-71.45843006720126"><ele>121.05764150943396</ele><time>2026-04-29T13:00:34Z</time></trkpt>
      <trkpt lat="43.364280119937106" lon="-71.45842716336129"><ele>121.09425576519916</ele><time>2026-04-29T13:00:35Z</time></trkpt>
      <trkpt lat="43.364276332327044" lon="-71.45842425952132"><ele>121.13087002096437</ele><time>2026-04-29T13:00:36Z</time></trkpt>
      <trkpt lat="43.36427254471698" lon="-71.45842135568135"><ele>121.16748427672957</ele><time>2026-04-29T13:00:37Z</time></trkpt>
      <trkpt lat="43.36426875710692" lon="-71.45841845184138"><ele>121.20409853249477</ele><time>2026-04-29T13:00:38Z</time></trkpt>
      <trkpt lat="43.36426496949686" lon="-71.4584155480014"><ele>121.24071278825997</ele><time>2026-04-29T13:00:39Z</time></trkpt>
      <trkpt lat="43.36426118188679" lon="-71.45841264416143"><ele>121.27732704402516</ele><time>2026-04-29T13:00:40Z</time></trkpt>
      <trkpt lat="43.36425739427673" lon="-71.45840974032146"><ele>121.31394129979036</ele><time>2026-04-29T13:00:41Z</time></trkpt>
      <trkpt lat="43.364253606666665" lon="-71.45840683648149"><ele>121.35055555555556</ele><time>2026-04-29T13:00:42Z</time></trkpt>
      <trkpt lat="43.3642498190566" lon="-71.45840393264152"><ele>121.38716981132076</ele><time>2026-04-29T13:00:43Z</time></trkpt>
      <trkpt lat="43.36424889264151" lon="-71.45840189660377"><ele>121.43792452830189</ele><time>2026-04-29T13:00:44Z</time></trkpt>
      <trkpt lat="43.364247966226415" lon="-71.45839986056603"><ele>121.48867924528302</ele><time>2026-04-29T13:00:45Z</time></trkpt>
      <trkpt lat="43.364247039811325" lon="-71.4583978245283"><ele>121.53943396226416</ele><time>2026-04-29T13:00:46Z</time></trkpt>
      <trkpt lat="43.36424611339623" lon="-71.45839578849056"><ele>121.59018867924529</ele><time>2026-04-29T13:00:47Z</time></trkpt>
      <trkpt lat="43.36424518698114" lon="-71.45839375245284"><ele>121.64094339622642</ele><time>2026-04-29T13:00:48Z</time></trkpt>
      <trkpt lat="43.36424426056604" lon="-71.4583917164151"><ele>121.69169811320755</ele><time>2026-04-29T13:00:49Z</time></trkpt>
      <trkpt lat="43.36424333415094" lon="-71.45838968037737"><ele>121.74245283018868</ele><time>2026-04-29T13:00:50Z</time></trkpt>
      <trkpt lat="43.36424240773585" lon="-71.45838764433962"><ele>121.79320754716981</ele><time>2026-04-29T13:00:51Z</time></trkpt>
      <trkpt lat="43.364241481320754" lon="-71.4583856083019"><ele>121.84396226415095</ele><time>2026-04-29T13:00:52Z</time></trkpt>
      <trkpt lat="43.36424055490566" lon="-71.45838357226415"><ele>121.89471698113208</ele><time>2026-04-29T13:00:53Z</time></trkpt>
      <trkpt lat="43.364239628490566" lon="-71.45838153622641"><ele>121.94547169811321</ele><time>2026-04-29T13:00:54Z</time></trkpt>
      <trkpt lat="43.364238702075475" lon="-71.45837950018868"><ele>121.99622641509434</ele><time>2026-04-29T13:00:55Z</time></trkpt>
      <trkpt lat="43.36423777566038" lon="-71.45837746415094"><ele>122.04698113207547</ele><time>2026-04-29T13:00:56Z</time></trkpt>
      <trkpt lat="43.36423684924529" lon="-71.45837542811321"><ele>122.0977358490566</ele><time>2026-04-29T13:00:57Z</time></trkpt>
      <trkpt lat="43.36423592283019" lon="-71.45837339207547"><ele>122.14849056603774</ele><time>2026-04-29T13:00:58Z</time></trkpt>
      <trkpt lat="43.3642349964151" lon="-71.45837135603774"><ele>122.19924528301887</ele><time>2026-04-29T13:00:59Z</time></trkpt>
      <trkpt lat="43.36423407" lon="-71.45836932"><ele>122.25</ele><time>2026-04-29T13:01:00Z</time></trkpt>
      <trkpt lat="43.3642284675" lon="-71.45835453250001"><ele>122.24125000000001</ele><time>2026-04-29T13:01:01Z</time></trkpt>
      <trkpt lat="43.364222865" lon="-71.458339745"><ele>122.2325</ele><time>2026-04-29T13:01:02Z</time></trkpt>
      <trkpt lat="43.364217262500006" lon="-71.4583249575"><ele>122.22375</ele><time>2026-04-29T13:01:03Z</time></trkpt>
      <trkpt lat="43.36421166" lon="-71.45831017"><ele>122.215</ele><time>2026-04-29T13:01:04Z</time></trkpt>
      <trkpt lat="43.3642060575" lon="-71.45829538250001"><ele>122.20625000000001</ele><time>2026-04-29T13:01:05Z</time></trkpt>
      <trkpt lat="43.364200455" lon="-71.458280595"><ele>122.1975</ele><time>2026-04-29T13:01:06Z</time></trkpt>
      <trkpt lat="43.364194852500006" lon="-71.4582658075"><ele>122.18875</ele><time>2026-04-29T13:01:07Z</time></trkpt>
      <trkpt lat="43.36418925" lon="-71.45825102"><ele>122.18</ele><time>2026-04-29T13:01:08Z</time></trkpt>
      <trkpt lat="43.364191058181824" lon="-71.45823918636364"><ele>122.19272727272728</ele><time>2026-04-29T13:01:09Z</time></trkpt>
      <trkpt lat="43.36419286636364" lon="-71.45822735272728"><ele>122.20545454545454</ele><time>2026-04-29T13:01:10Z</time></trkpt>
      <trkpt lat="43.36419467454546" lon="-71.45821551909091"><ele>122.21818181818182</ele><time>2026-04-29T13:01:11Z</time></trkpt>
      <trkpt lat="43.36419648272727" lon="-71.45820368545455"><ele>122.2309090909091</ele><time>2026-04-29T13:01:12Z</time></trkpt>
      <trkpt lat="43.364198290909094" lon="-71.45819185181819"><ele>122.24363636363637</ele><time>2026-04-29T13:01:13Z</time></trkpt>
      <trkpt lat="43.36420009909091" lon="-71.45818001818182"><ele>122.25636363636363</ele><time>2026-04-29T13:01:14Z</time></trkpt>
      <trkpt lat="43.36420190727273" lon="-71.45816818454546"><ele>122.2690909090909</ele><time>2026-04-29T13:01:15Z</time></trkpt>
      <trkpt lat="43.36420371545454" lon="-71.45815635090909"><ele>122.28181818181818</ele><time>2026-04-29T13:01:16Z</time></trkpt>
      <trkpt lat="43.364205523636365" lon="-71.45814451727273"><ele>122.29454545454546</ele><time>2026-04-29T13:01:17Z</time></trkpt>
      <trkpt lat="43.36420733181818" lon="-71.45813268363636"><ele>122.30727272727272</ele><time>2026-04-29T13:01:18Z</time></trkpt>
      <trkpt lat="43.36420914" lon="-71.45812085"><ele>122.32</ele><time>2026-04-29T13:01:19Z</time></trkpt>
      <trkpt lat="43.364217946" lon="-71.458117124"><ele>122.386</ele><time>2026-04-29T13:01:20Z</time></trkpt>
      <trkpt lat="43.364226752" lon="-71.458113398"><ele>122.452</ele><time>2026-04-29T13:01:21Z</time></trkpt>
      <trkpt lat="43.364235558000004" lon="-71.458109672"><ele>122.518</ele><time>2026-04-29T13:01:22Z</time></trkpt>
      <trkpt lat="43.364244364" lon="-71.458105946"><ele>122.584</ele><time>2026-04-29T13:01:23Z</time></trkpt>
      <trkpt lat="43.36425317" lon="-71.45810222"><ele>122.65</ele><time>2026-04-29T13:01:24Z</time></trkpt>
      <trkpt lat="43.364261976" lon="-71.458098494"><ele>122.716</ele><time>2026-04-29T13:01:25Z</time></trkpt>
      <trkpt lat="43.364270782000006" lon="-71.458094768"><ele>122.782</ele><time>2026-04-29T13:01:26Z</time></trkpt>
      <trkpt lat="43.364279588" lon="-71.458091042"><ele>122.848</ele><time>2026-04-29T13:01:27Z</time></trkpt>
      <trkpt lat="43.364288394" lon="-71.458087316"><ele>122.914</ele><time>2026-04-29T13:01:28Z</time></trkpt>
      <trkpt lat="43.3642972" lon="-71.45808359"><ele>122.98</ele><time>2026-04-29T13:01:29Z</time></trkpt>
      <trkpt lat="43.36430429615385" lon="-71.45808338384616"><ele>123.01615384615386</ele><time>2026-04-29T13:01:30Z</time></trkpt>
      <trkpt lat="43.36431139230769" lon="-71.45808317769232"><ele>123.05230769230769</ele><time>2026-04-29T13:01:31Z</time></trkpt>
      <trkpt lat="43.36431848846154" lon="-71.45808297153846"><ele>123.08846153846154</ele><time>2026-04-29T13:01:32Z</time></trkpt>
      <trkpt lat="43.364325584615386" lon="-71.45808276538462"><ele>123.12461538461538</ele><time>2026-04-29T13:01:33Z</time></trkpt>
      <trkpt lat="43.36433268076923" lon="-71.45808255923077"><ele>123.16076923076923</ele><time>2026-04-29T13:01:34Z</time></trkpt>
      <trkpt lat="43.364339776923075" lon="-71.45808235307693"><ele>123.19692307692308</ele><time>2026-04-29T13:01:35Z</time></trkpt>
      <trkpt lat="43.364346873076926" lon="-71.45808214692308"><ele>123.23307692307692</ele><time>2026-04-29T13:01:36Z</time></trkpt>
      <trkpt lat="43.36435396923077" lon="-71.45808194076923"><ele>123.26923076923077</ele><time>2026-04-29T13:01:37Z</time></trkpt>
      <trkpt lat="43.364361065384614" lon="-71.45808173461539"><ele>123.30538461538463</ele><time>2026-04-29T13:01:38Z</time></trkpt>
      <trkpt lat="43.36436816153846" lon="-71.45808152846155"><ele>123.34153846153846</ele><time>2026-04-29T13:01:39Z</time></trkpt>
      <trkpt lat="43.36437525769231" lon="-71.45808132230769"><ele>123.37769230769231</ele><time>2026-04-29T13:01:40Z</time></trkpt>
      <trkpt lat="43.36438235384615" lon="-71.45808111615385"><ele>123.41384615384615</ele><time>2026-04-29T13:01:41Z</time></trkpt>
      <trkpt lat="43.36438945" lon="-71.45808091"><ele>123.45</ele><time>2026-04-29T13:01:42Z</time></trkpt>
      <trkpt lat="43.364398110909086" lon="-71.45808109272728"><ele>123.45636363636363</ele><time>2026-04-29T13:01:43Z</time></trkpt>
      <trkpt lat="43.36440677181818" lon="-71.45808127545455"><ele>123.46272727272728</ele><time>2026-04-29T13:01:44Z</time></trkpt>
      <trkpt lat="43.36441543272727" lon="-71.45808145818182"><ele>123.46909090909091</ele><time>2026-04-29T13:01:45Z</time></trkpt>
      <trkpt lat="43.36442409363636" lon="-71.4580816409091"><ele>123.47545454545454</ele><time>2026-04-29T13:01:46Z</time></trkpt>
      <trkpt lat="43.364432754545454" lon="-71.45808182363636"><ele>123.48181818181818</ele><time>2026-04-29T13:01:47Z</time></trkpt>
      <trkpt lat="43.36444141545454" lon="-71.45808200636364"><ele>123.48818181818181</ele><time>2026-04-29T13:01:48Z</time></trkpt>
      <trkpt lat="43.36445007636364" lon="-71.4580821890909"><ele>123.49454545454546</ele><time>2026-04-29T13:01:49Z</time></trkpt>
      <trkpt lat="43.36445873727273" lon="-71.45808237181818"><ele>123.50090909090909</ele><time>2026-04-29T13:01:50Z</time></trkpt>
      <trkpt lat="43.364467398181816" lon="-71.45808255454546"><ele>123.50727272727272</ele><time>2026-04-29T13:01:51Z</time></trkpt>
      <trkpt lat="43.36447605909091" lon="-71.45808273727272"><ele>123.51363636363637</ele><time>2026-04-29T13:01:52Z</time></trkpt>
      <trkpt lat="43.36448472" lon="-71.45808292"><ele>123.52</ele><time>2026-04-29T13:01:53Z</time></trkpt>
      <trkpt lat="43.364493948" lon="-71.458080791"><ele>123.67399999999999</ele><time>2026-04-29T13:01:54Z</time></trkpt>
      <trkpt lat="43.364503176" lon="-71.45807866199999"><ele>123.828</ele><time>2026-04-29T13:01:55Z</time></trkpt>
      <trkpt lat="43.364512403999996" lon="-71.458076533"><ele>123.982</ele><time>2026-04-29T13:01:56Z</time></trkpt>
      <trkpt lat="43.364521632" lon="-71.458074404"><ele>124.136</ele><time>2026-04-29T13:01:57Z</time></trkpt>
      <trkpt lat="43.36453086" lon="-71.458072275"><ele>124.28999999999999</ele><time>2026-04-29T13:01:58Z</time></trkpt>
      <trkpt lat="43.364540088" lon="-71.458070146"><ele>124.444</ele><time>2026-04-29T13:01:59Z</time></trkpt>
      <trkpt lat="43.364549315999994" lon="-71.458068017"><ele>124.598</ele><time>2026-04-29T13:02:00Z</time></trkpt>
      <trkpt lat="43.364558544" lon="-71.45806588800001"><ele>124.752</ele><time>2026-04-29T13:02:01Z</time></trkpt>
      <trkpt lat="43.364567772" lon="-71.458063759"><ele>124.906</ele><time>2026-04-29T13:02:02Z</time></trkpt>
      <trkpt lat="43.364577" lon="-71.45806163"><ele>125.06</ele><time>2026-04-29T13:02:03Z</time></trkpt>
      <trkpt lat="43.36458790555555" lon="-71.45806244222223"><ele>125.04444444444445</ele><time>2026-04-29T13:02:04Z</time></trkpt>
      <trkpt lat="43.36459881111111" lon="-71.45806325444445"><ele>125.02888888888889</ele><time>2026-04-29T13:02:05Z</time></trkpt>
      <trkpt lat="43.36460971666666" lon="-71.45806406666667"><ele>125.01333333333334</ele><time>2026-04-29T13:02:06Z</time></trkpt>
      <trkpt lat="43.36462062222222" lon="-71.45806487888889"><ele>124.99777777777778</ele><time>2026-04-29T13:02:07Z</time></trkpt>
      <trkpt lat="43.364631527777775" lon="-71.45806569111112"><ele>124.98222222222222</ele><time>2026-04-29T13:02:08Z</time></trkpt>
      <trkpt lat="43.36464243333333" lon="-71.45806650333334"><ele>124.96666666666667</ele><time>2026-04-29T13:02:09Z</time></trkpt>
      <trkpt lat="43.364653338888886" lon="-71.45806731555555"><ele>124.95111111111112</ele><time>2026-04-29T13:02:10Z</time></trkpt>
      <trkpt lat="43.36466424444444" lon="-71.45806812777778"><ele>124.93555555555555</ele><time>2026-04-29T13:02:11Z</time></trkpt>
      <trkpt lat="43.36467515" lon="-71.45806894"><ele>124.92</ele><time>2026-04-29T13:02:12Z</time></trkpt>
      <trkpt lat="43.3646869825" lon="-71.45807165375001"><ele>124.96000000000001</ele><time>2026-04-29T13:02:13Z</time></trkpt>
      <trkpt lat="43.364698815" lon="-71.4580743675"><ele>125.0</ele><time>2026-04-29T13:02:14Z</time></trkpt>
      <trkpt lat="43.3647106475" lon="-71.45807708125"><ele>125.03999999999999</ele><time>2026-04-29T13:02:15Z</time></trkpt>
      <trkpt lat="43.36472248" lon="-71.458079795"><ele>125.08</ele><time>2026-04-29T13:02:16Z</time></trkpt>
      <trkpt lat="43.3647343125" lon="-71.45808250875001"><ele>125.12</ele><time>2026-04-29T13:02:17Z</time></trkpt>
      <trkpt lat="43.364746145" lon="-71.4580852225"><ele>125.16</ele><time>2026-04-29T13:02:18Z</time></trkpt>
      <trkpt lat="43.3647579775" lon="-71.45808793625"><ele>125.19999999999999</ele><time>2026-04-29T13:02:19Z</time></trkpt>
      <trkpt lat="43.36476981" lon="-71.45809065"><ele>125.24</ele><time>2026-04-29T13:02:20Z</time></trkpt>
      <trkpt lat="43.36478082" lon="-71.45809624375"><ele>125.19999999999999</ele><time>2026-04-29T13:02:21Z</time></trkpt>
      <trkpt lat="43.36479183" lon="-71.45810183750001"><ele>125.16</ele><time>2026-04-29T13:02:22Z</time></trkpt>
      <trkpt lat="43.36480284" lon="-71.45810743125"><ele>125.12</ele><time>2026-04-29T13:02:23Z</time></trkpt>
      <trkpt lat="43.364813850000004" lon="-71.458113025"><ele>125.08</ele><time>2026-04-29T13:02:24Z</time></trkpt>
      <trkpt lat="43.36482486" lon="-71.45811861875"><ele>125.03999999999999</ele><time>2026-04-29T13:02:25Z</time></trkpt>
      <trkpt lat="43.36483587" lon="-71.4581242125"><ele>125.0</ele><time>2026-04-29T13:02:26Z</time></trkpt>
      <trkpt lat="43.36484688" lon="-71.45812980625"><ele>124.96000000000001</ele><time>2026-04-29T13:02:27Z</time></trkpt>
      <trkpt lat="43.36485789" lon="-71.4581354"><ele>124.92</ele><time>2026-04-29T13:02:28Z</time></trkpt>
      <trkpt lat="43.364865934545456" lon="-71.45813866909091"><ele>124.91363636363637</ele><time>2026-04-29T13:02:29Z</time></trkpt>
      <trkpt lat="43.36487397909091" lon="-71.45814193818183"><ele>124.90727272727273</ele><time>2026-04-29T13:02:30Z</time></trkpt>
      <trkpt lat="43.36488202363637" lon="-71.45814520727272"><ele>124.9009090909091</ele><time>2026-04-29T13:02:31Z</time></trkpt>
      <trkpt lat="43.36489006818182" lon="-71.45814847636363"><ele>124.89454545454545</ele><time>2026-04-29T13:02:32Z</time></trkpt>
      <trkpt lat="43.364898112727275" lon="-71.45815174545454"><ele>124.88818181818182</ele><time>2026-04-29T13:02:33Z</time></trkpt>
      <trkpt lat="43.36490615727273" lon="-71.45815501454545"><ele>124.88181818181818</ele><time>2026-04-29T13:02:34Z</time></trkpt>
      <trkpt lat="43.36491420181818" lon="-71.45815828363637"><ele>124.87545454545455</ele><time>2026-04-29T13:02:35Z</time></trkpt>
      <trkpt lat="43.36492224636363" lon="-71.45816155272728"><ele>124.8690909090909</ele><time>2026-04-29T13:02:36Z</time></trkpt>
      <trkpt lat="43.36493029090909" lon="-71.45816482181817"><ele>124.86272727272727</ele><time>2026-04-29T13:02:37Z</time></trkpt>
      <trkpt lat="43.364938335454546" lon="-71.45816809090908"><ele>124.85636363636362</ele><time>2026-04-29T13:02:38Z</time></trkpt>
      <trkpt lat="43.36494638" lon="-71.45817136"><ele>124.85</ele><time>2026-04-29T13:02:39Z</time></trkpt>
      <trkpt lat="43.364951874375" lon="-71.458175189375"><ele>124.82</ele><time>2026-04-29T13:02:40Z</time></trkpt>
      <trkpt lat="43.36495736875" lon="-71.45817901875"><ele>124.78999999999999</ele><time>2026-04-29T13:02:41Z</time></trkpt>
      <trkpt lat="43.364962863125" lon="-71.45818284812499"><ele>124.75999999999999</ele><time>2026-04-29T13:02:42Z</time></trkpt>
      <trkpt lat="43.3649683575" lon="-71.4581866775"><ele>124.72999999999999</ele><time>2026-04-29T13:02:43Z</time></trkpt>
      <trkpt lat="43.364973851875" lon="-71.458190506875"><ele>124.7</ele><time>2026-04-29T13:02:44Z</time></trkpt>
      <trkpt lat="43.364979346249996" lon="-71.45819433624999"><ele>124.67</ele><time>2026-04-29T13:02:45Z</time></trkpt>
      <trkpt lat="43.364984840625" lon="-71.45819816562499"><ele>124.64</ele><time>2026-04-29T13:02:46Z</time></trkpt>
      <trkpt lat="43.364990335" lon="-71.458201995"><ele>124.61</ele><time>2026-04-29T13:02:47Z</time></trkpt>
      <trkpt lat="43.364995829375" lon="-71.458205824375"><ele>124.58</ele><time>2026-04-29T13:02:48Z</time></trkpt>
      <trkpt lat="43.36500132375" lon="-71.45820965375"><ele>124.55</ele><time>2026-04-29T13:02:49Z</time></trkpt>
      <trkpt lat="43.365006818124996" lon="-71.458213483125"><ele>124.52</ele><time>2026-04-29T13:02:50Z</time></trkpt>
      <trkpt lat="43.3650123125" lon="-71.4582173125"><ele>124.49000000000001</ele><time>2026-04-29T13:02:51Z</time></trkpt>
      <trkpt lat="43.365017806874995" lon="-71.458221141875"><ele>124.46000000000001</ele><time>2026-04-29T13:02:52Z</time></trkpt>
      <trkpt lat="43.36502330125" lon="-71.45822497124999"><ele>124.43</ele><time>2026-04-29T13:02:53Z</time></trkpt>
      <trkpt lat="43.365028795624994" lon="-71.458228800625"><ele>124.4</ele><time>2026-04-29T13:02:54Z</time></trkpt>
      <trkpt lat="43.36503429" lon="-71.45823263"><ele>124.37</ele><time>2026-04-29T13:02:55Z</time></trkpt>
      <trkpt lat="43.36504383" lon="-71.45823992111112"><ele>124.27888888888889</ele><time>2026-04-29T13:02:56Z</time></trkpt>
      <trkpt lat="43.36505337" lon="-71.45824721222222"><ele>124.18777777777778</ele><time>2026-04-29T13:02:57Z</time></trkpt>
      <trkpt lat="43.36506291" lon="-71.45825450333334"><ele>124.09666666666666</ele><time>2026-04-29T13:02:58Z</time></trkpt>
      <trkpt lat="43.36507245" lon="-71.45826179444444"><ele>124.00555555555556</ele><time>2026-04-29T13:02:59Z</time></trkpt>
      <trkpt lat="43.36508199" lon="-71.45826908555556"><ele>123.91444444444444</ele><time>2026-04-29T13:03:00Z</time></trkpt>
      <trkpt lat="43.36509153" lon="-71.45827637666666"><ele>123.82333333333334</ele><time>2026-04-29T13:03:01Z</time></trkpt>
      <trkpt lat="43.36510107" lon="-71.45828366777778"><ele>123.73222222222222</ele><time>2026-04-29T13:03:02Z</time></trkpt>
      <trkpt lat="43.36511061" lon="-71.45829095888888"><ele>123.64111111111112</ele><time>2026-04-29T13:03:03Z</time></trkpt>
      <trkpt lat="43.36512015" lon="-71.45829825"><ele>123.55</ele><time>2026-04-29T13:03:04Z</time></trkpt>
      <trkpt lat="43.36513014666667" lon="-71.45830368777777"><ele>123.52777777777777</ele><time>2026-04-29T13:03:05Z</time></trkpt>
      <trkpt lat="43.365140143333335" lon="-71.45830912555556"><ele>123.50555555555555</ele><time>2026-04-29T13:03:06Z</time></trkpt>
      <trkpt lat="43.365150140000004" lon="-71.45831456333333"><ele>123.48333333333333</ele><time>2026-04-29T13:03:07Z</time></trkpt>
      <trkpt lat="43.36516013666667" lon="-71.4583200011111"><ele>123.46111111111111</ele><time>2026-04-29T13:03:08Z</time></trkpt>
      <trkpt lat="43.365170133333336" lon="-71.45832543888889"><ele>123.43888888888888</ele><time>2026-04-29T13:03:09Z</time></trkpt>
      <trkpt lat="43.36518013" lon="-71.45833087666666"><ele>123.41666666666666</ele><time>2026-04-29T13:03:10Z</time></trkpt>
      <trkpt lat="43.36519012666667" lon="-71.45833631444444"><ele>123.39444444444445</ele><time>2026-04-29T13:03:11Z</time></trkpt>
      <trkpt lat="43.36520012333333" lon="-71.45834175222222"><ele>123.37222222222222</ele><time>2026-04-29T13:03:12Z</time></trkpt>
      <trkpt lat="43.36521012" lon="-71.45834719"><ele>123.35</ele><time>2026-04-29T13:03:13Z</time></trkpt>
      <trkpt lat="43.365217678" lon="-71.458355175"><ele>123.30699999999999</ele><time>2026-04-29T13:03:14Z</time></trkpt>
      <trkpt lat="43.365225236" lon="-71.45836316"><ele>123.264</ele><time>2026-04-29T13:03:15Z</time></trkpt>
      <trkpt lat="43.365232794" lon="-71.458371145"><ele>123.221</ele><time>2026-04-29T13:03:16Z</time></trkpt>
      <trkpt lat="43.365240352" lon="-71.45837913"><ele>123.178</ele><time>2026-04-29T13:03:17Z</time></trkpt>
      <trkpt lat="43.36524791" lon="-71.458387115"><ele>123.13499999999999</ele><time>2026-04-29T13:03:18Z</time></trkpt>
      <trkpt lat="43.365255468" lon="-71.4583951"><ele>123.092</ele><time>2026-04-29T13:03:19Z</time></trkpt>
      <trkpt lat="43.365263026" lon="-71.458403085"><ele>123.049</ele><time>2026-04-29T13:03:20Z</time></trkpt>
      <trkpt lat="43.365270584" lon="-71.45841107"><ele>123.006</ele><time>2026-04-29T13:03:21Z</time></trkpt>
      <trkpt lat="43.365278142" lon="-71.45841905500001"><ele>122.963</ele><time>2026-04-29T13:03:22Z</time></trkpt>
      <trkpt lat="43.3652857" lon="-71.45842704"><ele>122.92</ele><time>2026-04-29T13:03:23Z</time></trkpt>
      <trkpt lat="43.365290515714285" lon="-71.45843291642858"><ele>122.91357142857143</ele><time>2026-04-29T13:03:24Z</time></trkpt>
      <trkpt lat="43.36529533142857" lon="-71.45843879285715"><ele>122.90714285714286</ele><time>2026-04-29T13:03:25Z</time></trkpt>
      <trkpt lat="43.36530014714286" lon="-71.45844466928571"><ele>122.90071428571429</ele><time>2026-04-29T13:03:26Z</time></trkpt>
      <trkpt lat="43.365304962857145" lon="-71.45845054571429"><ele>122.89428571428572</ele><time>2026-04-29T13:03:27Z</time></trkpt>
      <trkpt lat="43.36530977857143" lon="-71.45845642214286"><ele>122.88785714285714</ele><time>2026-04-29T13:03:28Z</time></trkpt>
      <trkpt lat="43.365314594285714" lon="-71.45846229857143"><ele>122.88142857142857</ele><time>2026-04-29T13:03:29Z</time></trkpt>
      <trkpt lat="43.36531941" lon="-71.45846817500001"><ele>122.875</ele><time>2026-04-29T13:03:30Z</time></trkpt>
      <trkpt lat="43.36532422571429" lon="-71.45847405142857"><ele>122.86857142857143</ele><time>2026-04-29T13:03:31Z</time></trkpt>
      <trkpt lat="43.36532904142857" lon="-71.45847992785714"><ele>122.86214285714286</ele><time>2026-04-29T13:03:32Z</time></trkpt>
      <trkpt lat="43.36533385714286" lon="-71.45848580428571"><ele>122.85571428571428</ele><time>2026-04-29T13:03:33Z</time></trkpt>
      <trkpt lat="43.36533867285714" lon="-71.45849168071429"><ele>122.84928571428571</ele><time>2026-04-29T13:03:34Z</time></trkpt>
      <trkpt lat="43.36534348857143" lon="-71.45849755714285"><ele>122.84285714285714</ele><time>2026-04-29T13:03:35Z</time></trkpt>
      <trkpt lat="43.36534830428572" lon="-71.45850343357142"><ele>122.83642857142857</ele><time>2026-04-29T13:03:36Z</time></trkpt>
      <trkpt lat="43.36535312" lon="-71.45850931"><ele>122.83</ele><time>2026-04-29T13:03:37Z</time></trkpt>
      <trkpt lat="43.365358315" lon="-71.458512494375"><ele>122.90062499999999</ele><time>2026-04-29T13:03:38Z</time></trkpt>
      <trkpt lat="43.36536351" lon="-71.45851567874999"><ele>122.97125</ele><time>2026-04-29T13:03:39Z</time></trkpt>
      <trkpt lat="43.365368705" lon="-71.458518863125"><ele>123.041875</ele><time>2026-04-29T13:03:40Z</time></trkpt>
      <trkpt lat="43.3653739" lon="-71.4585220475"><ele>123.1125</ele><time>2026-04-29T13:03:41Z</time></trkpt>
      <trkpt lat="43.365379095" lon="-71.458525231875"><ele>123.18312499999999</ele><time>2026-04-29T13:03:42Z</time></trkpt>
      <trkpt lat="43.36538429" lon="-71.45852841625"><ele>123.25375</ele><time>2026-04-29T13:03:43Z</time></trkpt>
      <trkpt lat="43.365389485" lon="-71.458531600625"><ele>123.324375</ele><time>2026-04-29T13:03:44Z</time></trkpt>
      <trkpt lat="43.36539468" lon="-71.458534785"><ele>123.395</ele><time>2026-04-29T13:03:45Z</time></trkpt>
      <trkpt lat="43.365399875" lon="-71.458537969375"><ele>123.46562499999999</ele><time>2026-04-29T13:03:46Z</time></trkpt>
      <trkpt lat="43.36540507" lon="-71.45854115374999"><ele>123.53625</ele><time>2026-04-29T13:03:47Z</time></trkpt>
      <trkpt lat="43.365410265" lon="-71.458544338125"><ele>123.606875</ele><time>2026-04-29T13:03:48Z</time></trkpt>
      <trkpt lat="43.36541546" lon="-71.4585475225"><ele>123.6775</ele><time>2026-04-29T13:03:49Z</time></trkpt>
      <trkpt lat="43.365420655" lon="-71.458550706875"><ele>123.74812499999999</ele><time>2026-04-29T13:03:50Z</time></trkpt>
      <trkpt lat="43.36542585" lon="-71.45855389125"><ele>123.81875</ele><time>2026-04-29T13:03:51Z</time></trkpt>
      <trkpt lat="43.365431045" lon="-71.458557075625"><ele>123.889375</ele><time>2026-04-29T13:03:52Z</time></trkpt>
      <trkpt lat="43.36543624" lon="-71.45856026"><ele>123.96</ele><time>2026-04-29T13:03:53Z</time></trkpt>
      <trkpt lat="43.36543913727273" lon="-71.45857210636363"><ele>123.87818181818182</ele><time>2026-04-29T13:03:54Z</time></trkpt>
      <trkpt lat="43.36544203454545" lon="-71.45858395272727"><ele>123.79636363636364</ele><time>2026-04-29T13:03:55Z</time></trkpt>
      <trkpt lat="43.36544493181818" lon="-71.45859579909092"><ele>123.71454545454544</ele><time>2026-04-29T13:03:56Z</time></trkpt>
      <trkpt lat="43.36544782909091" lon="-71.45860764545455"><ele>123.63272727272727</ele><time>2026-04-29T13:03:57Z</time></trkpt>
      <trkpt lat="43.36545072636364" lon="-71.45861949181818"><ele>123.55090909090909</ele><time>2026-04-29T13:03:58Z</time></trkpt>
      <trkpt lat="43.36545362363636" lon="-71.45863133818182"><ele>123.46909090909091</ele><time>2026-04-29T13:03:59Z</time></trkpt>
      <trkpt lat="43.36545652090909" lon="-71.45864318454545"><ele>123.38727272727273</ele><time>2026-04-29T13:04:00Z</time></trkpt>
      <trkpt lat="43.36545941818182" lon="-71.45865503090909"><ele>123.30545454545455</ele><time>2026-04-29T13:04:01Z</time></trkpt>
      <trkpt lat="43.36546231545455" lon="-71.45866687727273"><ele>123.22363636363636</ele><time>2026-04-29T13:04:02Z</time></trkpt>
      <trkpt lat="43.36546521272727" lon="-71.45867872363637"><ele>123.14181818181818</ele><time>2026-04-29T13:04:03Z</time></trkpt>
      <trkpt lat="43.36546811" lon="-71.45869057"><ele>123.06</ele><time>2026-04-29T13:04:04Z</time></trkpt>
      <trkpt lat="43.36547459444444" lon="-71.45870118777778"><ele>123.07222222222222</ele><time>2026-04-29T13:04:05Z</time></trkpt>
      <trkpt lat="43.36548107888889" lon="-71.45871180555555"><ele>123.08444444444444</ele><time>2026-04-29T13:04:06Z</time></trkpt>
      <trkpt lat="43.36548756333333" lon="-71.45872242333333"><ele>123.09666666666666</ele><time>2026-04-29T13:04:07Z</time></trkpt>
      <trkpt lat="43.36549404777778" lon="-71.4587330411111"><ele>123.10888888888888</ele><time>2026-04-29T13:04:08Z</time></trkpt>
      <trkpt lat="43.36550053222222" lon="-71.45874365888889"><ele>123.12111111111112</ele><time>2026-04-29T13:04:09Z</time></trkpt>
      <trkpt lat="43.36550701666667" lon="-71.45875427666667"><ele>123.13333333333334</ele><time>2026-04-29T13:04:10Z</time></trkpt>
      <trkpt lat="43.36551350111111" lon="-71.45876489444444"><ele>123.14555555555556</ele><time>2026-04-29T13:04:11Z</time></trkpt>
      <trkpt lat="43.36551998555556" lon="-71.45877551222222"><ele>123.15777777777778</ele><time>2026-04-29T13:04:12Z</time></trkpt>
      <trkpt lat="43.36552647" lon="-71.45878613"><ele>123.17</ele><time>2026-04-29T13:04:13Z</time></trkpt>
      <trkpt lat="43.365530743" lon="-71.45879857199999"><ele>123.15</ele><time>2026-04-29T13:04:14Z</time></trkpt>
      <trkpt lat="43.365535016" lon="-71.45881101399999"><ele>123.13</ele><time>2026-04-29T13:04:15Z</time></trkpt>
      <trkpt lat="43.365539289" lon="-71.45882345599999"><ele>123.11</ele><time>2026-04-29T13:04:16Z</time></trkpt>
      <trkpt lat="43.365543562" lon="-71.45883589799999"><ele>123.09</ele><time>2026-04-29T13:04:17Z</time></trkpt>
      <trkpt lat="43.365547835" lon="-71.45884834"><ele>123.07</ele><time>2026-04-29T13:04:18Z</time></trkpt>
      <trkpt lat="43.365552108" lon="-71.458860782"><ele>123.05</ele><time>2026-04-29T13:04:19Z</time></trkpt>
      <trkpt lat="43.365556381000005" lon="-71.458873224"><ele>123.03</ele><time>2026-04-29T13:04:20Z</time></trkpt>
      <trkpt lat="43.365560654" lon="-71.458885666"><ele>123.01</ele><time>2026-04-29T13:04:21Z</time></trkpt>
      <trkpt lat="43.365564927" lon="-71.458898108"><ele>122.99</ele><time>2026-04-29T13:04:22Z</time></trkpt>
      <trkpt lat="43.3655692" lon="-71.45891055"><ele>122.97</ele><time>2026-04-29T13:04:23Z</time></trkpt>
      <trkpt lat="43.365571396" lon="-71.458923347"><ele>122.94</ele><time>2026-04-29T13:04:24Z</time></trkpt>
      <trkpt lat="43.365573592000004" lon="-71.45893614399999"><ele>122.91</ele><time>2026-04-29T13:04:25Z</time></trkpt>
      <trkpt lat="43.365575788" lon="-71.458948941"><ele>122.88</ele><time>2026-04-29T13:04:26Z</time></trkpt>
      <trkpt lat="43.365577984000005" lon="-71.458961738"><ele>122.85</ele><time>2026-04-29T13:04:27Z</time></trkpt>
      <trkpt lat="43.36558018" lon="-71.458974535"><ele>122.82</ele><time>2026-04-29T13:04:28Z</time></trkpt>
      <trkpt lat="43.365582376" lon="-71.45898733199999"><ele>122.79</ele><time>2026-04-29T13:04:29Z</time></trkpt>
      <trkpt lat="43.365584572" lon="-71.45900012899999"><ele>122.76</ele><time>2026-04-29T13:04:30Z</time></trkpt>
      <trkpt lat="43.365586768" lon="-71.459012926"><ele>122.73</ele><time>2026-04-29T13:04:31Z</time></trkpt>
      <trkpt lat="43.365588964000004" lon="-71.459025723"><ele>122.7</ele><time>2026-04-29T13:04:32Z</time></trkpt>
      <trkpt lat="43.36559116" lon="-71.45903852"><ele>122.67</ele><time>2026-04-29T13:04:33Z</time></trkpt>
      <trkpt lat="43.365592392" lon="-71.45905079799999"><ele>122.619</ele><time>2026-04-29T13:04:34Z</time></trkpt>
      <trkpt lat="43.365593624" lon="-71.45906307599999"><ele>122.568</ele><time>2026-04-29T13:04:35Z</time></trkpt>
      <trkpt lat="43.365594856" lon="-71.45907535399999"><ele>122.517</ele><time>2026-04-29T13:04:36Z</time></trkpt>
      <trkpt lat="43.365596088" lon="-71.45908763199999"><ele>122.466</ele><time>2026-04-29T13:04:37Z</time></trkpt>
      <trkpt lat="43.36559732" lon="-71.45909990999999"><ele>122.41499999999999</ele><time>2026-04-29T13:04:38Z</time></trkpt>
      <trkpt lat="43.365598552" lon="-71.459112188"><ele>122.364</ele><time>2026-04-29T13:04:39Z</time></trkpt>
      <trkpt lat="43.365599784" lon="-71.459124466"><ele>122.313</ele><time>2026-04-29T13:04:40Z</time></trkpt>
      <trkpt lat="43.365601016" lon="-71.459136744"><ele>122.262</ele><time>2026-04-29T13:04:41Z</time></trkpt>
      <trkpt lat="43.365602247999995" lon="-71.459149022"><ele>122.211</ele><time>2026-04-29T13:04:42Z</time></trkpt>
      <trkpt lat="43.36560348" lon="-71.4591613"><ele>122.16</ele><time>2026-04-29T13:04:43Z</time></trkpt>
      <trkpt lat="43.365605413" lon="-71.459173897"><ele>122.161</ele><time>2026-04-29T13:04:44Z</time></trkpt>
      <trkpt lat="43.365607346" lon="-71.45918649400001"><ele>122.16199999999999</ele><time>2026-04-29T13:04:45Z</time></trkpt>
      <trkpt lat="43.365609279" lon="-71.459199091"><ele>122.163</ele><time>2026-04-29T13:04:46Z</time></trkpt>
      <trkpt lat="43.365611212" lon="-71.45921168800001"><ele>122.164</ele><time>2026-04-29T13:04:47Z</time></trkpt>
      <trkpt lat="43.365613145" lon="-71.459224285"><ele>122.16499999999999</ele><time>2026-04-29T13:04:48Z</time></trkpt>
      <trkpt lat="43.365615078" lon="-71.459236882"><ele>122.166</ele><time>2026-04-29T13:04:49Z</time></trkpt>
      <trkpt lat="43.365617011" lon="-71.45924947900001"><ele>122.167</ele><time>2026-04-29T13:04:50Z</time></trkpt>
      <trkpt lat="43.365618944" lon="-71.459262076"><ele>122.168</ele><time>2026-04-29T13:04:51Z</time></trkpt>
      <trkpt lat="43.365620877" lon="-71.45927467300001"><ele>122.169</ele><time>2026-04-29T13:04:52Z</time></trkpt>
      <trkpt lat="43.36562281" lon="-71.45928727"><ele>122.17</ele><time>2026-04-29T13:04:53Z</time></trkpt>
      <trkpt lat="43.365623928" lon="-71.459300877"><ele>122.194</ele><time>2026-04-29T13:04:54Z</time></trkpt>
      <trkpt lat="43.365625046" lon="-71.459314484"><ele>122.218</ele><time>2026-04-29T13:04:55Z</time></trkpt>
      <trkpt lat="43.365626164" lon="-71.459328091"><ele>122.242</ele><time>2026-04-29T13:04:56Z</time></trkpt>
      <trkpt lat="43.365627282" lon="-71.459341698"><ele>122.266</ele><time>2026-04-29T13:04:57Z</time></trkpt>
      <trkpt lat="43.3656284" lon="-71.459355305"><ele>122.28999999999999</ele><time>2026-04-29T13:04:58Z</time></trkpt>
      <trkpt lat="43.365629518" lon="-71.459368912"><ele>122.314</ele><time>2026-04-29T13:04:59Z</time></trkpt>
      <trkpt lat="43.365630636" lon="-71.459382519"><ele>122.338</ele><time>2026-04-29T13:05:00Z</time></trkpt>
      <trkpt lat="43.365631754" lon="-71.459396126"><ele>122.362</ele><time>2026-04-29T13:05:01Z</time></trkpt>
      <trkpt lat="43.365632872" lon="-71.459409733"><ele>122.386</ele><time>2026-04-29T13:05:02Z</time></trkpt>
      <trkpt lat="43.36563399" lon="-71.45942334"><ele>122.41</ele><time>2026-04-29T13:05:03Z</time></trkpt>
      <trkpt lat="43.36563521222222" lon="-71.45943783"><ele>122.53666666666666</ele><time>2026-04-29T13:05:04Z</time></trkpt>
      <trkpt lat="43.36563643444445" lon="-71.45945232"><ele>122.66333333333333</ele><time>2026-04-29T13:05:05Z</time></trkpt>
      <trkpt lat="43.365637656666664" lon="-71.45946681"><ele>122.78999999999999</ele><time>2026-04-29T13:05:06Z</time></trkpt>
      <trkpt lat="43.36563887888889" lon="-71.4594813"><ele>122.91666666666666</ele><time>2026-04-29T13:05:07Z</time></trkpt>
      <trkpt lat="43.36564010111111" lon="-71.45949579"><ele>123.04333333333334</ele><time>2026-04-29T13:05:08Z</time></trkpt>
      <trkpt lat="43.365641323333335" lon="-71.45951028"><ele>123.17</ele><time>2026-04-29T13:05:09Z</time></trkpt>
      <trkpt lat="43.36564254555555" lon="-71.45952477"><ele>123.29666666666667</ele><time>2026-04-29T13:05:10Z</time></trkpt>
      <trkpt lat="43.365643767777776" lon="-71.45953926"><ele>123.42333333333333</ele><time>2026-04-29T13:05:11Z</time></trkpt>
      <trkpt lat="43.36564499" lon="-71.45955375"><ele>123.55</ele><time>2026-04-29T13:05:12Z</time></trkpt>
      <trkpt lat="43.3656468" lon="-71.45956641"><ele>123.562</ele><time>2026-04-29T13:05:13Z</time></trkpt>
      <trkpt lat="43.36564861" lon="-71.45957907"><ele>123.574</ele><time>2026-04-29T13:05:14Z</time></trkpt>
      <trkpt lat="43.36565042" lon="-71.45959173"><ele>123.586</ele><time>2026-04-29T13:05:15Z</time></trkpt>
      <trkpt lat="43.36565223" lon="-71.45960439"><ele>123.598</ele><time>2026-04-29T13:05:16Z</time></trkpt>
      <trkpt lat="43.365654039999995" lon="-71.45961704999999"><ele>123.61</ele><time>2026-04-29T13:05:17Z</time></trkpt>
      <trkpt lat="43.365655849999996" lon="-71.45962971"><ele>123.622</ele><time>2026-04-29T13:05:18Z</time></trkpt>
      <trkpt lat="43.36565766" lon="-71.45964237"><ele>123.634</ele><time>2026-04-29T13:05:19Z</time></trkpt>
      <trkpt lat="43.36565947" lon="-71.45965503"><ele>123.646</ele><time>2026-04-29T13:05:20Z</time></trkpt>
      <trkpt lat="43.36566128" lon="-71.45966769"><ele>123.658</ele><time>2026-04-29T13:05:21Z</time></trkpt>
      <trkpt lat="43.36566309" lon="-71.45968035"><ele>123.67</ele><time>2026-04-29T13:05:22Z</time></trkpt>
      <trkpt lat="43.36566281111111" lon="-71.45969473"><ele>123.69555555555556</ele><time>2026-04-29T13:05:23Z</time></trkpt>
      <trkpt lat="43.36566253222222" lon="-71.45970911"><ele>123.72111111111111</ele><time>2026-04-29T13:05:24Z</time></trkpt>
      <trkpt lat="43.36566225333333" lon="-71.45972349"><ele>123.74666666666667</ele><time>2026-04-29T13:05:25Z</time></trkpt>
      <trkpt lat="43.36566197444444" lon="-71.45973787"><ele>123.77222222222223</ele><time>2026-04-29T13:05:26Z</time></trkpt>
      <trkpt lat="43.36566169555555" lon="-71.45975225000001"><ele>123.79777777777778</ele><time>2026-04-29T13:05:27Z</time></trkpt>
      <trkpt lat="43.36566141666666" lon="-71.45976663"><ele>123.82333333333334</ele><time>2026-04-29T13:05:28Z</time></trkpt>
      <trkpt lat="43.36566113777778" lon="-71.45978101"><ele>123.8488888888889</ele><time>2026-04-29T13:05:29Z</time></trkpt>
      <trkpt lat="43.36566085888889" lon="-71.45979539000001"><ele>123.87444444444445</ele><time>2026-04-29T13:05:30Z</time></trkpt>
      <trkpt lat="43.36566058" lon="-71.45980977"><ele>123.9</ele><time>2026-04-29T13:05:31Z</time></trkpt>
      <trkpt lat="43.36565695777777" lon="-71.45982333444445"><ele>123.81666666666668</ele><time>2026-04-29T13:05:32Z</time></trkpt>
      <trkpt lat="43.36565333555555" lon="-71.4598368988889"><ele>123.73333333333333</ele><time>2026-04-29T13:05:33Z</time></trkpt>
      <trkpt lat="43.36564971333333" lon="-71.45985046333334"><ele>123.65</ele><time>2026-04-29T13:05:34Z</time></trkpt>
      <trkpt lat="43.36564609111111" lon="-71.45986402777778"><ele>123.56666666666668</ele><time>2026-04-29T13:05:35Z</time></trkpt>
      <trkpt lat="43.365642468888886" lon="-71.45987759222223"><ele>123.48333333333333</ele><time>2026-04-29T13:05:36Z</time></trkpt>
      <trkpt lat="43.36563884666666" lon="-71.45989115666667"><ele>123.4</ele><time>2026-04-29T13:05:37Z</time></trkpt>
      <trkpt lat="43.365635224444446" lon="-71.45990472111112"><ele>123.31666666666668</ele><time>2026-04-29T13:05:38Z</time></trkpt>
      <trkpt lat="43.36563160222222" lon="-71.45991828555556"><ele>123.23333333333333</ele><time>2026-04-29T13:05:39Z</time></trkpt>
      <trkpt lat="43.36562798" lon="-71.45993185"><ele>123.15</ele><time>2026-04-29T13:05:40Z</time></trkpt>
      <trkpt lat="43.365626735999996" lon="-71.459945248"><ele>123.215</ele><time>2026-04-29T13:05:41Z</time></trkpt>
      <trkpt lat="43.365625492" lon="-71.459958646"><ele>123.28</ele><time>2026-04-29T13:05:42Z</time></trkpt>
      <trkpt lat="43.365624248" lon="-71.45997204400001"><ele>123.345</ele><time>2026-04-29T13:05:43Z</time></trkpt>
      <trkpt lat="43.365623004" lon="-71.459985442"><ele>123.41</ele><time>2026-04-29T13:05:44Z</time></trkpt>
      <trkpt lat="43.365621759999996" lon="-71.45999884"><ele>123.475</ele><time>2026-04-29T13:05:45Z</time></trkpt>
      <trkpt lat="43.365620516" lon="-71.460012238"><ele>123.54</ele><time>2026-04-29T13:05:46Z</time></trkpt>
      <trkpt lat="43.365619272" lon="-71.46002563600001"><ele>123.605</ele><time>2026-04-29T13:05:47Z</time></trkpt>
      <trkpt lat="43.365618028" lon="-71.460039034"><ele>123.67</ele><time>2026-04-29T13:05:48Z</time></trkpt>
      <trkpt lat="43.365616784" lon="-71.460052432"><ele>123.735</ele><time>2026-04-29T13:05:49Z</time></trkpt>
      <trkpt lat="43.36561554" lon="-71.46006583"><ele>123.8</ele><time>2026-04-29T13:05:50Z</time></trkpt>
      <trkpt lat="43.36561222636364" lon="-71.46007749909091"><ele>123.69090909090909</ele><time>2026-04-29T13:05:51Z</time></trkpt>
      <trkpt lat="43.365608912727275" lon="-71.46008916818182"><ele>123.58181818181818</ele><time>2026-04-29T13:05:52Z</time></trkpt>
      <trkpt lat="43.365605599090905" lon="-71.46010083727273"><ele>123.47272727272727</ele><time>2026-04-29T13:05:53Z</time></trkpt>
      <trkpt lat="43.36560228545454" lon="-71.46011250636364"><ele>123.36363636363636</ele><time>2026-04-29T13:05:54Z</time></trkpt>
      <trkpt lat="43.36559897181818" lon="-71.46012417545455"><ele>123.25454545454545</ele><time>2026-04-29T13:05:55Z</time></trkpt>
      <trkpt lat="43.36559565818182" lon="-71.46013584454545"><ele>123.14545454545454</ele><time>2026-04-29T13:05:56Z</time></trkpt>
      <trkpt lat="43.365592344545455" lon="-71.46014751363636"><ele>123.03636363636363</ele><time>2026-04-29T13:05:57Z</time></trkpt>
      <trkpt lat="43.36558903090909" lon="-71.46015918272727"><ele>122.92727272727272</ele><time>2026-04-29T13:05:58Z</time></trkpt>
      <trkpt lat="43.36558571727272" lon="-71.46017085181818"><ele>122.81818181818181</ele><time>2026-04-29T13:05:59Z</time></trkpt>
      <trkpt lat="43.36558240363636" lon="-71.46018252090909"><ele>122.7090909090909</ele><time>2026-04-29T13:06:00Z</time></trkpt>
      <trkpt lat="43.36557909" lon="-71.46019419"><ele>122.6</ele><time>2026-04-29T13:06:01Z</time></trkpt>
      <trkpt lat="43.365574826666666" lon="-71.46020749"><ele>122.5</ele><time>2026-04-29T13:06:02Z</time></trkpt>
      <trkpt lat="43.36557056333333" lon="-71.46022079"><ele>122.39999999999999</ele><time>2026-04-29T13:06:03Z</time></trkpt>
      <trkpt lat="43.3655663" lon="-71.46023409"><ele>122.3</ele><time>2026-04-29T13:06:04Z</time></trkpt>
      <trkpt lat="43.36556203666667" lon="-71.46024738999999"><ele>122.2</ele><time>2026-04-29T13:06:05Z</time></trkpt>
      <trkpt lat="43.36555777333333" lon="-71.46026069"><ele>122.1</ele><time>2026-04-29T13:06:06Z</time></trkpt>
      <trkpt lat="43.36555351" lon="-71.46027398999999"><ele>122.0</ele><time>2026-04-29T13:06:07Z</time></trkpt>
      <trkpt lat="43.36554924666667" lon="-71.46028729"><ele>121.9</ele><time>2026-04-29T13:06:08Z</time></trkpt>
      <trkpt lat="43.36554498333333" lon="-71.46030058999999"><ele>121.8</ele><time>2026-04-29T13:06:09Z</time></trkpt>
      <trkpt lat="43.36554072" lon="-71.46031389"><ele>121.7</ele><time>2026-04-29T13:06:10Z</time></trkpt>
      <trkpt lat="43.36553608777778" lon="-71.46032623555556"><ele>121.64666666666668</ele><time>2026-04-29T13:06:11Z</time></trkpt>
      <trkpt lat="43.365531455555555" lon="-71.4603385811111"><ele>121.59333333333333</ele><time>2026-04-29T13:06:12Z</time></trkpt>
      <trkpt lat="43.36552682333333" lon="-71.46035092666666"><ele>121.54</ele><time>2026-04-29T13:06:13Z</time></trkpt>
      <trkpt lat="43.36552219111111" lon="-71.46036327222222"><ele>121.48666666666666</ele><time>2026-04-29T13:06:14Z</time></trkpt>
      <trkpt lat="43.36551755888889" lon="-71.46037561777777"><ele>121.43333333333334</ele><time>2026-04-29T13:06:15Z</time></trkpt>
      <trkpt lat="43.36551292666667" lon="-71.46038796333333"><ele>121.38</ele><time>2026-04-29T13:06:16Z</time></trkpt>
      <trkpt lat="43.365508294444446" lon="-71.4604003088889"><ele>121.32666666666667</ele><time>2026-04-29T13:06:17Z</time></trkpt>
      <trkpt lat="43.365503662222224" lon="-71.46041265444444"><ele>121.27333333333333</ele><time>2026-04-29T13:06:18Z</time></trkpt>
      <trkpt lat="43.36549903" lon="-71.460425"><ele>121.22</ele><time>2026-04-29T13:06:19Z</time></trkpt>
      <trkpt lat="43.365493317777776" lon="-71.46043723777778"><ele>121.17666666666666</ele><time>2026-04-29T13:06:20Z</time></trkpt>
      <trkpt lat="43.36548760555556" lon="-71.46044947555556"><ele>121.13333333333333</ele><time>2026-04-29T13:06:21Z</time></trkpt>
      <trkpt lat="43.36548189333333" lon="-71.46046171333333"><ele>121.09</ele><time>2026-04-29T13:06:22Z</time></trkpt>
      <trkpt lat="43.36547618111111" lon="-71.46047395111111"><ele>121.04666666666667</ele><time>2026-04-29T13:06:23Z</time></trkpt>
      <trkpt lat="43.36547046888889" lon="-71.4604861888889"><ele>121.00333333333333</ele><time>2026-04-29T13:06:24Z</time></trkpt>
      <trkpt lat="43.36546475666667" lon="-71.46049842666667"><ele>120.96</ele><time>2026-04-29T13:06:25Z</time></trkpt>
      <trkpt lat="43.36545904444444" lon="-71.46051066444444"><ele>120.91666666666667</ele><time>2026-04-29T13:06:26Z</time></trkpt>
      <trkpt lat="43.36545333222222" lon="-71.46052290222222"><ele>120.87333333333333</ele><time>2026-04-29T13:06:27Z</time></trkpt>
      <trkpt lat="43.36544762" lon="-71.46053514"><ele>120.83</ele><time>2026-04-29T13:06:28Z</time></trkpt>
      <trkpt lat="43.36544102625" lon="-71.460548695"><ele>120.8575</ele><time>2026-04-29T13:06:29Z</time></trkpt>
      <trkpt lat="43.365434432499995" lon="-71.46056225000001"><ele>120.88499999999999</ele><time>2026-04-29T13:06:30Z</time></trkpt>
      <trkpt lat="43.36542783875" lon="-71.460575805"><ele>120.9125</ele><time>2026-04-29T13:06:31Z</time></trkpt>
      <trkpt lat="43.365421245" lon="-71.46058936"><ele>120.94</ele><time>2026-04-29T13:06:32Z</time></trkpt>
      <trkpt lat="43.36541465125" lon="-71.460602915"><ele>120.9675</ele><time>2026-04-29T13:06:33Z</time></trkpt>
      <trkpt lat="43.365408057500005" lon="-71.46061646999999"><ele>120.995</ele><time>2026-04-29T13:06:34Z</time></trkpt>
      <trkpt lat="43.365401463750004" lon="-71.460630025"><ele>121.0225</ele><time>2026-04-29T13:06:35Z</time></trkpt>
      <trkpt lat="43.36539487" lon="-71.46064358"><ele>121.05</ele><time>2026-04-29T13:06:36Z</time></trkpt>
      <trkpt lat="43.365386988750004" lon="-71.46065594625"><ele>121.18875</ele><time>2026-04-29T13:06:37Z</time></trkpt>
      <trkpt lat="43.365379107500004" lon="-71.46066831249999"><ele>121.3275</ele><time>2026-04-29T13:06:38Z</time></trkpt>
      <trkpt lat="43.365371226250005" lon="-71.46068067875"><ele>121.46625</ele><time>2026-04-29T13:06:39Z</time></trkpt>
      <trkpt lat="43.365363345000006" lon="-71.460693045"><ele>121.60499999999999</ele><time>2026-04-29T13:06:40Z</time></trkpt>
      <trkpt lat="43.36535546375" lon="-71.46070541125"><ele>121.74374999999999</ele><time>2026-04-29T13:06:41Z</time></trkpt>
      <trkpt lat="43.3653475825" lon="-71.46071777750001"><ele>121.8825</ele><time>2026-04-29T13:06:42Z</time></trkpt>
      <trkpt lat="43.36533970125" lon="-71.46073014375"><ele>122.02125</ele><time>2026-04-29T13:06:43Z</time></trkpt>
      <trkpt lat="43.36533182" lon="-71.46074251"><ele>122.16</ele><time>2026-04-29T13:06:44Z</time></trkpt>
      <trkpt lat="43.36532299875" lon="-71.46075315875001"><ele>122.16749999999999</ele><time>2026-04-29T13:06:45Z</time></trkpt>
      <trkpt lat="43.365314177500004" lon="-71.4607638075"><ele>122.175</ele><time>2026-04-29T13:06:46Z</time></trkpt>
      <trkpt lat="43.365305356250005" lon="-71.46077445625"><ele>122.1825</ele><time>2026-04-29T13:06:47Z</time></trkpt>
      <trkpt lat="43.365296535" lon="-71.460785105"><ele>122.19</ele><time>2026-04-29T13:06:48Z</time></trkpt>
      <trkpt lat="43.36528771375" lon="-71.46079575375"><ele>122.19749999999999</ele><time>2026-04-29T13:06:49Z</time></trkpt>
      <trkpt lat="43.3652788925" lon="-71.4608064025"><ele>122.205</ele><time>2026-04-29T13:06:50Z</time></trkpt>
      <trkpt lat="43.36527007125" lon="-71.46081705124999"><ele>122.2125</ele><time>2026-04-29T13:06:51Z</time></trkpt>
      <trkpt lat="43.36526125" lon="-71.4608277"><ele>122.22</ele><time>2026-04-29T13:06:52Z</time></trkpt>
      <trkpt lat="43.36525267333334" lon="-71.46083603222222"><ele>122.21777777777778</ele><time>2026-04-29T13:06:53Z</time></trkpt>
      <trkpt lat="43.36524409666667" lon="-71.46084436444444"><ele>122.21555555555555</ele><time>2026-04-29T13:06:54Z</time></trkpt>
      <trkpt lat="43.36523552" lon="-71.46085269666666"><ele>122.21333333333334</ele><time>2026-04-29T13:06:55Z</time></trkpt>
      <trkpt lat="43.36522694333333" lon="-71.46086102888889"><ele>122.21111111111111</ele><time>2026-04-29T13:06:56Z</time></trkpt>
      <trkpt lat="43.36521836666667" lon="-71.46086936111111"><ele>122.2088888888889</ele><time>2026-04-29T13:06:57Z</time></trkpt>
      <trkpt lat="43.36520979" lon="-71.46087769333333"><ele>122.20666666666666</ele><time>2026-04-29T13:06:58Z</time></trkpt>
      <trkpt lat="43.36520121333333" lon="-71.46088602555555"><ele>122.20444444444445</ele><time>2026-04-29T13:06:59Z</time></trkpt>
      <trkpt lat="43.36519263666666" lon="-71.46089435777778"><ele>122.20222222222222</ele><time>2026-04-29T13:07:00Z</time></trkpt>
      <trkpt lat="43.36518406" lon="-71.46090269"><ele>122.2</ele><time>2026-04-29T13:07:01Z</time></trkpt>
      <trkpt lat="43.365174894999996" lon="-71.460906978"><ele>122.176</ele><time>2026-04-29T13:07:02Z</time></trkpt>
      <trkpt lat="43.36516573" lon="-71.460911266"><ele>122.152</ele><time>2026-04-29T13:07:03Z</time></trkpt>
      <trkpt lat="43.365156565" lon="-71.460915554"><ele>122.128</ele><time>2026-04-29T13:07:04Z</time></trkpt>
      <trkpt lat="43.3651474" lon="-71.460919842"><ele>122.104</ele><time>2026-04-29T13:07:05Z</time></trkpt>
      <trkpt lat="43.365138235" lon="-71.46092413"><ele>122.08</ele><time>2026-04-29T13:07:06Z</time></trkpt>
      <trkpt lat="43.36512907" lon="-71.46092841800001"><ele>122.056</ele><time>2026-04-29T13:07:07Z</time></trkpt>
      <trkpt lat="43.365119905" lon="-71.46093270600001"><ele>122.032</ele><time>2026-04-29T13:07:08Z</time></trkpt>
      <trkpt lat="43.36511074" lon="-71.46093699400001"><ele>122.008</ele><time>2026-04-29T13:07:09Z</time></trkpt>
      <trkpt lat="43.365101575000004" lon="-71.46094128200001"><ele>121.984</ele><time>2026-04-29T13:07:10Z</time></trkpt>
      <trkpt lat="43.36509241" lon="-71.46094557"><ele>121.96</ele><time>2026-04-29T13:07:11Z</time></trkpt>
      <trkpt lat="43.365082490000006" lon="-71.460946809"><ele>121.80999999999999</ele><time>2026-04-29T13:07:12Z</time></trkpt>
      <trkpt lat="43.36507257" lon="-71.460948048"><ele>121.66</ele><time>2026-04-29T13:07:13Z</time></trkpt>
      <trkpt lat="43.36506265" lon="-71.460949287"><ele>121.50999999999999</ele><time>2026-04-29T13:07:14Z</time></trkpt>
      <trkpt lat="43.36505273" lon="-71.460950526"><ele>121.36</ele><time>2026-04-29T13:07:15Z</time></trkpt>
      <trkpt lat="43.365042810000006" lon="-71.460951765"><ele>121.21</ele><time>2026-04-29T13:07:16Z</time></trkpt>
      <trkpt lat="43.36503289" lon="-71.460953004"><ele>121.05999999999999</ele><time>2026-04-29T13:07:17Z</time></trkpt>
      <trkpt lat="43.36502297" lon="-71.460954243"><ele>120.91</ele><time>2026-04-29T13:07:18Z</time></trkpt>
      <trkpt lat="43.36501305" lon="-71.460955482"><ele>120.75999999999999</ele><time>2026-04-29T13:07:19Z</time></trkpt>
      <trkpt lat="43.365003130000005" lon="-71.460956721"><ele>120.61</ele><time>2026-04-29T13:07:20Z</time></trkpt>
      <trkpt lat="43.36499321" lon="-71.46095796"><ele>120.46</ele><time>2026-04-29T13:07:21Z</time></trkpt>
      <trkpt lat="43.364982394444446" lon="-71.46095827222223"><ele>120.44111111111111</ele><time>2026-04-29T13:07:22Z</time></trkpt>
      <trkpt lat="43.36497157888889" lon="-71.46095858444444"><ele>120.42222222222222</ele><time>2026-04-29T13:07:23Z</time></trkpt>
      <trkpt lat="43.364960763333336" lon="-71.46095889666667"><ele>120.40333333333334</ele><time>2026-04-29T13:07:24Z</time></trkpt>
      <trkpt lat="43.36494994777778" lon="-71.4609592088889"><ele>120.38444444444444</ele><time>2026-04-29T13:07:25Z</time></trkpt>
      <trkpt lat="43.36493913222222" lon="-71.4609595211111"><ele>120.36555555555556</ele><time>2026-04-29T13:07:26Z</time></trkpt>
      <trkpt lat="43.36492831666666" lon="-71.46095983333333"><ele>120.34666666666666</ele><time>2026-04-29T13:07:27Z</time></trkpt>
      <trkpt lat="43.36491750111111" lon="-71.46096014555556"><ele>120.32777777777778</ele><time>2026-04-29T13:07:28Z</time></trkpt>
      <trkpt lat="43.36490668555555" lon="-71.46096045777777"><ele>120.30888888888889</ele><time>2026-04-29T13:07:29Z</time></trkpt>
      <trkpt lat="43.36489587" lon="-71.46096077"><ele>120.29</ele><time>2026-04-29T13:07:30Z</time></trkpt>
      <trkpt lat="43.364884679999996" lon="-71.460962445"><ele>120.2025</ele><time>2026-04-29T13:07:31Z</time></trkpt>
      <trkpt lat="43.36487349" lon="-71.46096412"><ele>120.11500000000001</ele><time>2026-04-29T13:07:32Z</time></trkpt>
      <trkpt lat="43.3648623" lon="-71.46096579499999"><ele>120.0275</ele><time>2026-04-29T13:07:33Z</time></trkpt>
      <trkpt lat="43.364851110000004" lon="-71.46096747"><ele>119.94</ele><time>2026-04-29T13:07:34Z</time></trkpt>
      <trkpt lat="43.36483992" lon="-71.460969145"><ele>119.8525</ele><time>2026-04-29T13:07:35Z</time></trkpt>
    </trkseg>
  </trk>
</gpx>